{"type": "FeatureCollection", "bron": "Natural Earth 1:50m land (public domain), geknipt op (1.0, 50.0, 17.0, 60.0)", "features": [{"type": "Feature", "geometry": {"type": "Polygon", "coordinates": [[[12.5687, 55.7851], [12.5712, 55.685], [12.5452, 55.6558], [12.507, 55.6366], [12.4071, 55.6163], [12.3206, 55.5878], [12.2435, 55.5379], [12.215, 55.4665], [12.2754, 55.4143], [12.3852, 55.3856], [12.4131, 55.2862], [12.3225, 55.2371], [12.0899, 55.1881], [12.0655, 55.0699], [12.073, 54.9768], [12.0688, 54.909], [12.0504, 54.8153], [11.8623, 54.7726], [11.7409, 54.9153], [11.7398, 54.9725], [11.7036, 55.0392], [11.6968, 55.096], [11.6538, 55.1869], [11.4759, 55.2115], [11.4068, 55.2147], [11.3103, 55.1979], [11.2863, 55.2044], [11.1707, 55.3286], [11.1897, 55.4656], [11.128, 55.5348], [11.1195, 55.5661], [11.121, 55.6007], [11.0703, 55.6293], [11.0088, 55.6444], [10.9789, 55.7215], [11.0496, 55.7402], [11.2244, 55.7312], [11.2755, 55.7365], [11.3223, 55.7525], [11.4637, 55.8793], [11.4596, 55.9072], [11.4747, 55.9435], [11.6277, 55.9569], [11.6959, 55.9079], [11.6822, 55.8295], [11.6909, 55.729], [11.7836, 55.7017], [11.8197, 55.6977], [11.8583, 55.7719], [11.8854, 55.808], [11.9221, 55.8281], [11.9346, 55.8959], [11.9128, 55.9373], [11.8664, 55.9682], [12.0396, 56.0521], [12.2189, 56.1187], [12.3232, 56.1221], [12.4282, 56.1059], [12.5258, 56.0834], [12.5787, 56.0641], [12.6084, 56.033], [12.543, 55.959], [12.5248, 55.9185], [12.5687, 55.7851]]]}, "properties": {}}, {"type": "Feature", "geometry": {"type": "Polygon", "coordinates": [[[10.6451, 55.6098], [10.6868, 55.5576], [10.7381, 55.4463], [10.8192, 55.3219], [10.7854, 55.2698], [10.8084, 55.203], [10.7853, 55.1334], [10.6238, 55.0524], [10.4428, 55.0488], [10.2546, 55.0879], [9.9888, 55.1632], [9.9674, 55.2055], [9.9301, 55.2289], [9.859, 55.3572], [9.8606, 55.5155], [9.9942, 55.5353], [10.2861, 55.6108], [10.3536, 55.599], [10.424, 55.5604], [10.5051, 55.5581], [10.6228, 55.6128], [10.6451, 55.6098]]]}, "properties": {}}, {"type": "Feature", "geometry": {"type": "Polygon", "coordinates": [[[1.0, 52.9561], [1.0556, 52.959], [1.2713, 52.9246], [1.3821, 52.8935], [1.6567, 52.7537], [1.7161, 52.6772], [1.7434, 52.5785], [1.7466, 52.469], [1.7004, 52.3689], [1.6474, 52.2785], [1.6146, 52.1618], [1.5914, 52.1198], [1.559, 52.0869], [1.4135, 51.9948], [1.3168, 51.9569], [1.276, 51.9735], [1.2324, 51.9712], [1.2278, 51.9491], [1.2738, 51.9021], [1.2744, 51.8454], [1.1885, 51.8034], [1.1012, 51.7854], [1.0, 51.8009], [1.0, 51.3597], [1.0149, 51.3597], [1.2571, 51.3751], [1.3734, 51.3747], [1.4149, 51.3633], [1.4156, 51.3108], [1.3976, 51.182], [1.3655, 51.1555], [1.0444, 51.0473], [1.0, 50.9962]]]}, "properties": {}}, {"type": "Feature", "geometry": {"type": "Polygon", "coordinates": [[[6.3334, 53.5107], [6.1933, 53.4768], [6.1593, 53.4839], [6.1677, 53.4937], [6.2909, 53.515], [6.3334, 53.5107]]]}, "properties": {}}, {"type": "Feature", "geometry": {"type": "Polygon", "coordinates": [[[5.9293, 53.4588], [5.732, 53.4426], [5.6653, 53.4549], [5.6543, 53.4665], [5.7081, 53.4734], [5.8763, 53.4751], [5.9282, 53.465], [5.9293, 53.4588]]]}, "properties": {}}, {"type": "Feature", "geometry": {"type": "Polygon", "coordinates": [[[5.1086, 53.308], [4.9237, 53.2346], [4.9079, 53.2462], [5.0271, 53.3102], [5.1086, 53.308]]]}, "properties": {}}, {"type": "Feature", "geometry": {"type": "Polygon", "coordinates": [[[5.3258, 53.3857], [5.2326, 53.3778], [5.1902, 53.3918], [5.4151, 53.4314], [5.5574, 53.4436], [5.5826, 53.4381], [5.3258, 53.3857]]]}, "properties": {}}, {"type": "Feature", "geometry": {"type": "Polygon", "coordinates": [[[16.5285, 56.2905], [16.4771, 56.2402], [16.4316, 56.2437], [16.4013, 56.3109], [16.3941, 56.4836], [16.4123, 56.569], [16.6304, 56.8769], [16.7277, 56.902], [16.8646, 57.0907], [16.9016, 57.1746], [16.9609, 57.2502], [16.996, 57.3178], [17.0, 57.3215], [17.0, 57.1378], [16.8837, 56.9852], [16.8383, 56.8405], [16.778, 56.8052], [16.5285, 56.2905]]]}, "properties": {}}, {"type": "Feature", "geometry": {"type": "Polygon", "coordinates": [[[15.0877, 55.0219], [15.0508, 55.0049], [14.8855, 55.033], [14.6842, 55.1022], [14.7137, 55.238], [14.7653, 55.2967], [15.1326, 55.1445], [15.1371, 55.0872], [15.0877, 55.0219]]]}, "properties": {}}, {"type": "Feature", "geometry": {"type": "Polygon", "coordinates": [[[13.7092, 54.3827], [13.7342, 54.3154], [13.7073, 54.2812], [13.5949, 54.3382], [13.482, 54.3374], [13.4146, 54.2496], [13.3644, 54.2458], [13.19, 54.3256], [13.1621, 54.3646], [13.1563, 54.3969], [13.1813, 54.509], [13.1767, 54.5442], [13.2314, 54.5828], [13.2399, 54.6384], [13.3368, 54.6971], [13.4228, 54.6993], [13.4501, 54.6496], [13.4912, 54.6154], [13.636, 54.577], [13.6576, 54.5596], [13.6707, 54.5354], [13.6033, 54.4882], [13.5805, 54.464], [13.6019, 54.4251], [13.7092, 54.3827]]]}, "properties": {}}, {"type": "Feature", "geometry": {"type": "Polygon", "coordinates": [[[12.5492, 54.9658], [12.511, 54.9509], [12.3575, 54.9618], [12.1845, 54.8925], [12.1188, 54.9144], [12.1437, 54.9587], [12.1617, 54.9748], [12.2199, 54.9936], [12.2588, 55.0211], [12.274, 55.0641], [12.3101, 55.0409], [12.4172, 55.0312], [12.4695, 55.0175], [12.5133, 54.9973], [12.5492, 54.9658]]]}, "properties": {}}, {"type": "Feature", "geometry": {"type": "Polygon", "coordinates": [[[12.6657, 55.5965], [12.5716, 55.554], [12.5509, 55.5562], [12.5203, 55.6146], [12.5699, 55.6501], [12.5992, 55.6802], [12.62, 55.6793], [12.6484, 55.6468], [12.6657, 55.5965]]]}, "properties": {}}, {"type": "Feature", "geometry": {"type": "Polygon", "coordinates": [[[11.3614, 54.8916], [11.5384, 54.8296], [11.6581, 54.8332], [11.7396, 54.8074], [11.759, 54.7677], [11.7659, 54.6794], [11.6804, 54.6537], [11.5859, 54.6625], [11.4574, 54.6289], [11.0355, 54.7731], [11.0417, 54.8934], [11.0586, 54.9406], [11.2585, 54.9518], [11.3614, 54.8916]]]}, "properties": {}}, {"type": "Feature", "geometry": {"type": "Polygon", "coordinates": [[[10.4844, 54.8476], [10.4173, 54.8372], [10.3405, 54.8589], [10.2156, 54.941], [10.1999, 54.9627], [10.2655, 54.9488], [10.347, 54.906], [10.4137, 54.8968], [10.5049, 54.8605], [10.4844, 54.8476]]]}, "properties": {}}, {"type": "Feature", "geometry": {"type": "Polygon", "coordinates": [[[10.0612, 54.8864], [9.9571, 54.8725], [9.9039, 54.8966], [9.8063, 54.906], [9.7712, 55.0599], [9.7812, 55.069], [9.8304, 55.0583], [9.9988, 54.9865], [10.0577, 54.9079], [10.0612, 54.8864]]]}, "properties": {}}, {"type": "Feature", "geometry": {"type": "Polygon", "coordinates": [[[10.7341, 54.7507], [10.6897, 54.7451], [10.6295, 54.8261], [10.6217, 54.8514], [10.6925, 54.9033], [10.7383, 54.962], [10.8567, 55.0522], [10.925, 55.1579], [10.9511, 55.1562], [10.9208, 55.0621], [10.7652, 54.7997], [10.7341, 54.7507]]]}, "properties": {}}, {"type": "Feature", "geometry": {"type": "Polygon", "coordinates": [[[10.6073, 55.7831], [10.5903, 55.7651], [10.527, 55.7838], [10.5203, 55.8485], [10.5443, 55.9066], [10.5161, 55.9585], [10.5472, 55.9919], [10.6363, 55.9142], [10.6617, 55.8776], [10.6273, 55.8339], [10.6073, 55.7831]]]}, "properties": {}}, {"type": "Feature", "geometry": {"type": "Polygon", "coordinates": [[[11.2828, 54.418], [11.1293, 54.416], [11.0707, 54.456], [11.0117, 54.4662], [11.0435, 54.5155], [11.085, 54.5334], [11.2336, 54.5013], [11.2803, 54.4384], [11.2828, 54.418]]]}, "properties": {}}, {"type": "Feature", "geometry": {"type": "Polygon", "coordinates": [[[11.0521, 57.2525], [11.0114, 57.2291], [10.8738, 57.2623], [10.9346, 57.3086], [11.0857, 57.3299], [11.1745, 57.3229], [11.0769, 57.2769], [11.0521, 57.2525]]]}, "properties": {}}, {"type": "Feature", "geometry": {"type": "Polygon", "coordinates": [[[8.3077, 54.787], [8.2847, 54.7671], [8.2957, 54.9083], [8.4052, 55.0587], [8.4515, 55.0554], [8.4041, 55.0147], [8.3904, 54.9863], [8.3712, 54.9294], [8.3799, 54.8999], [8.6296, 54.8917], [8.6006, 54.8654], [8.3474, 54.8476], [8.3077, 54.787]]]}, "properties": {}}, {"type": "Feature", "geometry": {"type": "Polygon", "coordinates": [[[4.8861, 53.0707], [4.7871, 52.9998], [4.7268, 53.0196], [4.7092, 53.036], [4.7398, 53.0913], [4.8864, 53.1833], [4.8861, 53.0707]]]}, "properties": {}}, {"type": "Feature", "geometry": {"type": "Polygon", "coordinates": [[[3.9491, 51.7395], [4.0468, 51.6849], [4.0676, 51.6675], [4.0751, 51.6488], [3.951, 51.6271], [3.819, 51.694], [3.7318, 51.6782], [3.699, 51.7099], [3.6985, 51.7297], [3.7891, 51.7464], [3.9491, 51.7395]]]}, "properties": {}}, {"type": "Feature", "geometry": {"type": "Polygon", "coordinates": [[[8.5879, 54.7127], [8.5489, 54.6882], [8.4538, 54.6911], [8.4004, 54.7141], [8.4177, 54.7387], [8.4682, 54.7574], [8.51, 54.7603], [8.5734, 54.7487], [8.5879, 54.7127]]]}, "properties": {}}, {"type": "Feature", "geometry": {"type": "Polygon", "coordinates": [[[6.7348, 53.5825], [6.6421, 53.5792], [6.6686, 53.6057], [6.7546, 53.6255], [6.8009, 53.6255], [6.7348, 53.5825]]]}, "properties": {}}, {"type": "Feature", "geometry": {"type": "Polygon", "coordinates": [[[17.0, 58.6641], [16.9781, 58.6542], [16.6394, 58.6512], [16.3158, 58.6636], [16.2143, 58.6367], [16.3181, 58.6283], [16.3908, 58.6019], [16.478, 58.6129], [16.683, 58.5997], [16.7885, 58.5853], [16.9238, 58.4926], [16.8243, 58.4596], [16.652, 58.4343], [16.7166, 58.3029], [16.7699, 58.2143], [16.7001, 58.1608], [16.6949, 57.9175], [16.597, 57.9129], [16.5554, 57.8123], [16.5862, 57.7609], [16.5838, 57.6417], [16.6042, 57.5683], [16.6522, 57.5007], [16.6309, 57.4302], [16.476, 57.2651], [16.4795, 57.1877], [16.5073, 57.1417], [16.5279, 57.0682], [16.4575, 56.9268], [16.4078, 56.8087], [16.3487, 56.7093], [16.2165, 56.59], [16.1507, 56.5008], [15.9967, 56.2226], [15.9203, 56.1674], [15.8267, 56.125], [15.7223, 56.1642], [15.6266, 56.1856], [15.5097, 56.183], [15.3266, 56.1508], [15.0512, 56.1722], [14.782, 56.1619], [14.714, 56.1341], [14.7548, 56.0332], [14.6556, 56.0199], [14.5586, 56.0486], [14.4732, 56.0144], [14.402, 55.9768], [14.2619, 55.8875], [14.215, 55.8326], [14.2029, 55.7291], [14.2765, 55.6364], [14.3417, 55.5277], [14.1737, 55.3966], [14.08, 55.3922], [13.8063, 55.4286], [13.3214, 55.3464], [12.8858, 55.4114], [12.9406, 55.4816], [12.9388, 55.5332], [12.9634, 55.6126], [12.978, 55.6938], [12.9739, 55.7481], [12.942, 55.8061], [12.8346, 55.8818], [12.5926, 56.1376], [12.521, 56.2456], [12.4712, 56.2905], [12.507, 56.293], [12.7063, 56.235], [12.7528, 56.2421], [12.8017, 56.2639], [12.7422, 56.3469], [12.6911, 56.3844], [12.6564, 56.4406], [12.7731, 56.4558], [12.8574, 56.4524], [12.9195, 56.5156], [12.8837, 56.6177], [12.7932, 56.6492], [12.7176, 56.6628], [12.5727, 56.8233], [12.4215, 56.9064], [12.1519, 57.227], [12.0532, 57.447], [11.9615, 57.4261], [11.917, 57.5219], [11.8851, 57.6127], [11.8787, 57.6794], [11.735, 57.7177], [11.7291, 57.7645], [11.7032, 57.9732], [11.549, 58.0012], [11.4493, 58.1184], [11.4315, 58.34], [11.33, 58.3803], [11.2482, 58.3691], [11.2521, 58.4241], [11.2716, 58.4756], [11.2238, 58.6799], [11.2079, 58.8664], [11.1691, 58.9227], [11.1472, 58.9886], [11.1669, 59.0456], [11.1958, 59.0783], [11.2953, 59.0869], [11.3883, 59.0365], [11.3864, 59.0657], [11.3659, 59.1045], [11.1321, 59.1432], [11.0908, 59.1418], [10.9989, 59.1645], [10.945, 59.1709], [10.8345, 59.1839], [10.7426, 59.296], [10.6449, 59.3892], [10.6311, 59.4282], [10.6344, 59.6025], [10.6045, 59.68], [10.5953, 59.7646], [10.5339, 59.6958], [10.5695, 59.5871], [10.4938, 59.5415], [10.3981, 59.5193], [10.4071, 59.4557], [10.4464, 59.4436], [10.4546, 59.3775], [10.4313, 59.2796], [10.2432, 59.0621], [10.2052, 59.0387], [10.1794, 59.0093], [10.0831, 59.0288], [9.9596, 58.9682], [9.8426, 58.9585], [9.8002, 59.0271], [9.6352, 59.1178], [9.5572, 59.1127], [9.6271, 59.0679], [9.6961, 59.0097], [9.6569, 58.9712], [9.6185, 58.946], [9.5511, 58.933], [9.31, 58.8568], [9.3958, 58.8057], [9.3229, 58.7476], [9.2387, 58.739], [9.1937, 58.7119], [9.1781, 58.675], [8.9284, 58.57], [8.5214, 58.3006], [8.3122, 58.2245], [8.1661, 58.1453], [8.0374, 58.1473], [7.8756, 58.08], [7.4659, 58.0209], [7.1941, 58.0477], [7.0049, 58.0242], [6.9034, 58.0705], [6.8902, 58.1023], [6.8953, 58.1208], [6.9123, 58.1429], [6.8771, 58.1507], [6.8028, 58.1545], [6.7711, 58.1322], [6.7668, 58.0815], [6.7314, 58.0683], [6.5905, 58.0973], [6.5551, 58.1234], [6.6058, 58.1764], [6.6925, 58.224], [6.6768, 58.2338], [6.6599, 58.2627], [6.6176, 58.2664], [6.4915, 58.2594], [6.3891, 58.268], [6.0547, 58.3751], [5.9766, 58.4323], [5.7068, 58.5236], [5.5859, 58.6204], [5.5173, 58.7265], [5.5225, 58.8227], [5.5556, 58.9752], [5.6122, 59.0129], [5.8543, 58.9595], [6.099, 58.8703], [6.1373, 58.8747], [6.2142, 58.9447], [6.3633, 59.0009], [6.3211, 59.0165], [6.0994, 58.952], [6.017, 58.9877], [5.8892, 59.0605], [5.8892, 59.0979], [5.9487, 59.1354], [5.9686, 59.1861], [5.9373, 59.234], [5.9519, 59.2991], [6.0507, 59.3682], [6.1989, 59.4381], [6.3057, 59.5056], [6.4153, 59.5471], [6.4039, 59.561], [6.2785, 59.5345], [6.1586, 59.4896], [6.0174, 59.4145], [5.8452, 59.3535], [5.718, 59.3298], [5.6573, 59.3103], [5.5641, 59.2912], [5.4676, 59.2038], [5.3623, 59.1664], [5.1732, 59.1625], [5.1316, 59.2265], [5.1851, 59.4537], [5.2422, 59.5643], [5.3049, 59.6426], [5.4035, 59.6558], [5.4725, 59.7131], [5.5297, 59.7131], [5.5795, 59.6866], [5.7722, 59.6609], [5.8673, 59.734], [5.991, 59.7447], [6.2166, 59.8184], [6.2119, 59.8318], [6.0593, 59.8156], [5.9667, 59.8132], [5.834, 59.7947], [5.7635, 59.8079], [5.7305, 59.8631], [5.7836, 59.9128], [5.94, 60.0], [5.6849, 60.0], [5.557, 59.9078], [5.4945, 59.8256], [5.3534, 59.7601], [5.2639, 59.7098], [5.2345, 59.6918], [5.186, 59.6423], [5.1458, 59.6388], [5.1107, 59.6678], [5.1049, 59.7317], [5.1192, 59.8337], [5.1871, 59.9071], [5.2195, 59.9788], [5.2052, 60.0], [17.0, 60.0], [17.0, 50.0], [1.2487, 50.0], [1.4072, 50.0885], [1.5141, 50.2051], [1.5484, 50.2307], [1.5928, 50.2522], [1.5516, 50.2939], [1.5795, 50.7393], [1.6096, 50.8195], [1.6723, 50.885], [1.7677, 50.9357], [1.9125, 50.9906], [2.4457, 51.0665], [2.5249, 51.0971], [2.9602, 51.2654], [3.2252, 51.3516], [3.3501, 51.3777], [3.4258, 51.3935], [3.5895, 51.3994], [3.7165, 51.3691], [3.8834, 51.3545], [4.011, 51.3959], [4.1115, 51.3606], [4.2262, 51.3865], [4.1389, 51.4015], [4.0065, 51.4432], [3.8219, 51.4094], [3.6936, 51.4499], [3.5869, 51.4539], [3.5205, 51.4862], [3.4489, 51.5408], [3.4996, 51.5767], [3.5486, 51.5891], [3.7439, 51.596], [3.886, 51.5742], [4.1413, 51.4558], [4.2058, 51.4567], [4.2741, 51.4716], [4.2394, 51.5039], [4.1755, 51.5193], [4.0805, 51.5511], [4.0048, 51.5958], [4.1826, 51.6103], [4.158, 51.6334], [4.1346, 51.6729], [3.9469, 51.8105], [3.9789, 51.8478], [4.0261, 51.9277], [4.0849, 51.9941], [4.1317, 52.0119], [4.2088, 52.059], [4.3763, 52.1968], [4.4828, 52.3092], [4.5621, 52.4426], [4.6783, 52.8098], [4.7127, 52.8721], [4.7687, 52.9413], [4.8391, 52.9283], [4.888, 52.9083], [5.0612, 52.9606], [5.3584, 53.0965], [5.446, 53.2141], [5.532, 53.2687], [5.8735, 53.3752], [6.0622, 53.4071], [6.3532, 53.4153], [6.5636, 53.4343], [6.8162, 53.4412], [6.9124, 53.3754], [6.9682, 53.3273], [7.058, 53.3006], [7.1973, 53.2823], [7.1521, 53.327], [7.0533, 53.3758], [7.0743, 53.4776], [7.1071, 53.557], [7.2064, 53.6545], [7.2853, 53.6813], [7.6292, 53.6973], [8.0093, 53.6907], [8.1671, 53.5434], [8.1085, 53.4677], [8.2008, 53.4324], [8.2452, 53.4453], [8.279, 53.5112], [8.3016, 53.5841], [8.3339, 53.6062], [8.4514, 53.5517], [8.4927, 53.5144], [8.4952, 53.3942], [8.5385, 53.5569], [8.5062, 53.6708], [8.5284, 53.7811], [8.5756, 53.8385], [8.6189, 53.875], [8.8978, 53.8357], [9.2056, 53.856], [9.322, 53.8135], [9.5854, 53.6005], [9.6731, 53.5656], [9.784, 53.5546], [9.6312, 53.6002], [9.312, 53.8591], [9.2164, 53.8912], [9.0696, 53.9009], [8.9781, 53.9262], [8.9204, 53.9653], [8.9035, 54.0003], [8.9066, 54.2608], [8.8516, 54.2996], [8.7804, 54.313], [8.736, 54.2952], [8.6449, 54.295], [8.6258, 54.354], [8.648, 54.3977], [8.8312, 54.4275], [8.9519, 54.4676], [8.9572, 54.5383], [8.881, 54.5939], [8.7896, 54.6959], [8.6823, 54.7918], [8.6614, 54.9859], [8.6383, 55.0456], [8.5729, 55.1343], [8.6698, 55.1557], [8.6511, 55.3286], [8.6159, 55.4182], [8.3453, 55.5103], [8.1321, 55.5998], [8.1813, 55.9012], [8.2023, 55.9824], [8.1215, 56.1399], [8.1299, 56.3212], [8.164, 56.6069], [8.2317, 56.6181], [8.2814, 56.6167], [8.4731, 56.5654], [8.5529, 56.5603], [8.6076, 56.5145], [8.6717, 56.4957], [8.7181, 56.5443], [8.7361, 56.6274], [8.8881, 56.7351], [8.9945, 56.7748], [9.0671, 56.7938], [9.1403, 56.7504], [9.1964, 56.7017], [9.2097, 56.8084], [9.2549, 57.0117], [9.1104, 57.0437], [8.9928, 57.0161], [8.8761, 56.8873], [8.772, 56.7253], [8.6031, 56.7104], [8.4684, 56.6646], [8.3467, 56.7121], [8.2683, 56.754], [8.2663, 56.8153], [8.2841, 56.8523], [8.4271, 56.9844], [8.6186, 57.1113], [8.8115, 57.1101], [8.9522, 57.1506], [9.0363, 57.1554], [9.2988, 57.1465], [9.4336, 57.1743], [9.5543, 57.2325], [9.8151, 57.4784], [9.9623, 57.581], [10.2591, 57.617], [10.5333, 57.7354], [10.61, 57.7369], [10.481, 57.6487], [10.4603, 57.6146], [10.4446, 57.5622], [10.5371, 57.4485], [10.5176, 57.3793], [10.5241, 57.2432], [10.4369, 57.1723], [10.3385, 57.0213], [10.2961, 56.9991], [10.287, 56.8229], [10.2967, 56.7809], [10.2827, 56.6205], [10.3836, 56.5548], [10.4902, 56.5205], [10.8459, 56.5217], [10.8828, 56.4929], [10.9262, 56.4433], [10.8944, 56.359], [10.8564, 56.2955], [10.7534, 56.242], [10.6212, 56.2021], [10.539, 56.2003], [10.427, 56.2762], [10.3737, 56.2516], [10.3187, 56.2129], [10.2267, 56.0054], [10.183, 55.8652], [10.1594, 55.8538], [10.1073, 55.8745], [10.0174, 55.8761], [9.9037, 55.8428], [9.962, 55.8131], [10.0236, 55.7614], [9.999, 55.7355], [9.899, 55.7076], [9.8104, 55.651], [9.7732, 55.6082], [9.6614, 55.5575], [9.5911, 55.4932], [9.6256, 55.4136], [9.6402, 55.3437], [9.671, 55.2664], [9.6433, 55.2047], [9.5048, 55.1163], [9.4537, 55.0396], [9.5724, 55.0405], [9.6454, 55.0228], [9.6882, 55.0001], [9.7323, 54.968], [9.7053, 54.9283], [9.7459, 54.8072], [9.8923, 54.7806], [9.9538, 54.7383], [10.0222, 54.6739], [10.0288, 54.5813], [9.9413, 54.5146], [9.8687, 54.4725], [10.1435, 54.4884], [10.1708, 54.4502], [10.2124, 54.4089], [10.3604, 54.4383], [10.7315, 54.3163], [10.956, 54.3757], [11.0134, 54.3792], [11.0644, 54.2805], [11.0086, 54.1812], [10.8107, 54.0751], [10.8546, 54.0098], [10.9178, 53.9953], [11.1043, 54.0092], [11.3996, 53.9446], [11.4611, 53.9647], [11.7006, 54.1135], [11.7963, 54.1455], [12.1113, 54.1683], [12.1687, 54.2259], [12.2963, 54.2838], [12.3785, 54.347], [12.5754, 54.4674], [12.7791, 54.4457], [12.898, 54.4227], [13.0286, 54.411], [13.1475, 54.2827], [13.448, 54.1409], [13.7242, 54.1532], [13.8223, 54.019], [13.8655, 53.8534], [13.9504, 53.8014], [14.025, 53.7674], [14.25, 53.7319], [14.4876, 53.6719], [14.5835, 53.6394], [14.5716, 53.6759], [14.5521, 53.7073], [14.5649, 53.7535], [14.5584, 53.8232], [14.3509, 53.8587], [14.1722, 53.8744], [14.0483, 53.8631], [13.9258, 53.8791], [13.9021, 53.939], [13.9217, 53.9966], [13.8725, 54.0363], [13.8271, 54.0596], [13.8204, 54.0928], [13.8277, 54.1272], [14.0389, 54.0346], [14.2114, 53.9503], [14.2493, 53.9319], [14.3842, 53.9247], [14.7157, 54.0183], [15.2884, 54.1399], [15.9, 54.254], [16.0428, 54.2664], [16.1863, 54.2904], [16.2394, 54.3331], [16.2923, 54.3616], [16.3756, 54.4369], [16.5598, 54.5538], [16.8854, 54.5964], [17.0, 54.6486]]]}, "properties": {}}]}