{"type": "FeatureCollection", "bron": "Natural Earth 1:50m land (public domain), geknipt op (-7.0, 39.0, 17.0, 60.0)", "features": [{"type": "Feature", "geometry": {"type": "Polygon", "coordinates": [[[12.5687, 55.7851], [12.5712, 55.685], [12.5452, 55.6558], [12.507, 55.6366], [12.4071, 55.6163], [12.3206, 55.5878], [12.2435, 55.5379], [12.215, 55.4665], [12.2754, 55.4143], [12.3852, 55.3856], [12.4131, 55.2862], [12.3225, 55.2371], [12.0899, 55.1881], [12.0655, 55.0699], [12.073, 54.9768], [12.0688, 54.909], [12.0504, 54.8153], [11.8623, 54.7726], [11.7409, 54.9153], [11.7398, 54.9725], [11.7036, 55.0392], [11.6968, 55.096], [11.6538, 55.1869], [11.4759, 55.2115], [11.4068, 55.2147], [11.3103, 55.1979], [11.2863, 55.2044], [11.1707, 55.3286], [11.1897, 55.4656], [11.128, 55.5348], [11.1195, 55.5661], [11.121, 55.6007], [11.0703, 55.6293], [11.0088, 55.6444], [10.9789, 55.7215], [11.0496, 55.7402], [11.2244, 55.7312], [11.2755, 55.7365], [11.3223, 55.7525], [11.4637, 55.8793], [11.4596, 55.9072], [11.4747, 55.9435], [11.6277, 55.9569], [11.6959, 55.9079], [11.6822, 55.8295], [11.6909, 55.729], [11.7836, 55.7017], [11.8197, 55.6977], [11.8583, 55.7719], [11.8854, 55.808], [11.9221, 55.8281], [11.9346, 55.8959], [11.9128, 55.9373], [11.8664, 55.9682], [12.0396, 56.0521], [12.2189, 56.1187], [12.3232, 56.1221], [12.4282, 56.1059], [12.5258, 56.0834], [12.5787, 56.0641], [12.6084, 56.033], [12.543, 55.959], [12.5248, 55.9185], [12.5687, 55.7851]]]}, "properties": {}}, {"type": "Feature", "geometry": {"type": "Polygon", "coordinates": [[[10.6451, 55.6098], [10.6868, 55.5576], [10.7381, 55.4463], [10.8192, 55.3219], [10.7854, 55.2698], [10.8084, 55.203], [10.7853, 55.1334], [10.6238, 55.0524], [10.4428, 55.0488], [10.2546, 55.0879], [9.9888, 55.1632], [9.9674, 55.2055], [9.9301, 55.2289], [9.859, 55.3572], [9.8606, 55.5155], [9.9942, 55.5353], [10.2861, 55.6108], [10.3536, 55.599], [10.424, 55.5604], [10.5051, 55.5581], [10.6228, 55.6128], [10.6451, 55.6098]]]}, "properties": {}}, {"type": "Feature", "geometry": {"type": "Polygon", "coordinates": [[[3.1453, 39.7901], [3.2411, 39.7567], [3.3422, 39.7867], [3.3959, 39.7773], [3.4489, 39.7612], [3.4618, 39.6978], [3.4146, 39.6271], [3.3487, 39.5557], [3.293, 39.4771], [3.2447, 39.3866], [3.1546, 39.3333], [3.0729, 39.3013], [2.9001, 39.3684], [2.7998, 39.3851], [2.7698, 39.4103], [2.746, 39.5103], [2.7006, 39.5421], [2.6341, 39.5562], [2.5759, 39.5307], [2.4995, 39.4779], [2.4588, 39.5305], [2.3943, 39.5404], [2.37, 39.5721], [2.3713, 39.6131], [2.785, 39.8548], [2.9048, 39.9083], [3.1587, 39.9705], [3.1976, 39.9611], [3.1645, 39.9242], [3.167, 39.9077], [3.1986, 39.8898], [3.1909, 39.8614], [3.1587, 39.8366], [3.1453, 39.7901]]]}, "properties": {}}, {"type": "Feature", "geometry": {"type": "Polygon", "coordinates": [[[9.632, 40.882], [9.682, 40.8181], [9.7943, 40.5562], [9.8053, 40.4996], [9.7828, 40.4415], [9.7542, 40.4003], [9.643, 40.2684], [9.6595, 40.1592], [9.7008, 40.0918], [9.7067, 40.017], [9.686, 39.9244], [9.617, 39.3544], [9.5836, 39.2536], [9.5625, 39.166], [9.4863, 39.1396], [9.3881, 39.1675], [9.2642, 39.2168], [9.2069, 39.2138], [9.1493, 39.197], [9.1018, 39.2113], [9.0563, 39.2392], [9.0227, 39.0433], [8.9922, 39.0], [8.5727, 39.0], [8.5533, 39.0303], [8.4862, 39.1105], [8.4182, 39.2057], [8.4107, 39.2918], [8.3991, 39.4816], [8.4187, 39.523], [8.4471, 39.5628], [8.461, 39.6477], [8.4512, 39.7217], [8.4711, 39.7481], [8.5107, 39.7217], [8.5405, 39.7316], [8.5387, 39.7697], [8.5478, 39.8392], [8.4959, 39.8975], [8.4078, 39.9172], [8.3993, 39.9782], [8.4086, 40.0376], [8.4551, 40.0776], [8.4708, 40.1307], [8.4713, 40.2927], [8.4092, 40.3523], [8.3854, 40.4427], [8.3532, 40.5005], [8.2955, 40.5586], [8.2303, 40.606], [8.1899, 40.6516], [8.1809, 40.771], [8.2038, 40.8707], [8.2242, 40.9133], [8.2452, 40.907], [8.3102, 40.8575], [8.3633, 40.8463], [8.4685, 40.8343], [8.5719, 40.8502], [8.6989, 40.8953], [8.8212, 40.9499], [8.9981, 41.1104], [9.1072, 41.1429], [9.1631, 41.1852], [9.1821, 41.2422], [9.2284, 41.2571], [9.283, 41.2017], [9.3508, 41.1959], [9.4552, 41.1501], [9.5002, 41.1063], [9.5388, 41.0537], [9.5757, 41.0305], [9.6153, 41.0173], [9.6212, 41.0049], [9.5897, 40.9925], [9.5537, 40.9321], [9.574, 40.9147], [9.632, 40.882]]]}, "properties": {}}, {"type": "Feature", "geometry": {"type": "Polygon", "coordinates": [[[9.4804, 42.8054], [9.4542, 42.6586], [9.4732, 42.6156], [9.5094, 42.5856], [9.5262, 42.5526], [9.5564, 42.1609], [9.5507, 42.1297], [9.4284, 41.9724], [9.4009, 41.9262], [9.3948, 41.7312], [9.3742, 41.6788], [9.3309, 41.6271], [9.2534, 41.4601], [9.1861, 41.3849], [9.003, 41.4766], [8.895, 41.5162], [8.8421, 41.5589], [8.8075, 41.5884], [8.8298, 41.6277], [8.879, 41.6686], [8.8868, 41.7007], [8.771, 41.7371], [8.718, 41.7614], [8.7187, 41.804], [8.7587, 41.8704], [8.7404, 41.9251], [8.6736, 41.9224], [8.6219, 41.9307], [8.6151, 41.9591], [8.6534, 41.9956], [8.7025, 42.0431], [8.701, 42.0956], [8.6416, 42.1182], [8.5878, 42.1608], [8.5662, 42.2188], [8.6079, 42.2584], [8.6755, 42.284], [8.6259, 42.3434], [8.5924, 42.3447], [8.5656, 42.3577], [8.5875, 42.3853], [8.64, 42.4266], [8.7131, 42.5498], [8.8148, 42.6079], [8.9949, 42.6453], [9.0437, 42.6617], [9.0884, 42.705], [9.1379, 42.7329], [9.198, 42.7292], [9.2535, 42.7125], [9.2877, 42.6946], [9.3134, 42.7132], [9.3384, 42.7669], [9.323, 42.8141], [9.331, 42.9438], [9.3632, 43.0174], [9.4152, 43.0215], [9.4633, 42.981], [9.4608, 42.9452], [9.4786, 42.8605], [9.4804, 42.8054]]]}, "properties": {}}, {"type": "Feature", "geometry": {"type": "Polygon", "coordinates": [[[-3.1097, 58.5155], [-3.1011, 58.4337], [-3.1129, 58.4089], [-3.1368, 58.3783], [-3.2124, 58.3212], [-3.411, 58.2396], [-3.775, 58.0521], [-3.99, 57.959], [-4.0196, 57.9143], [-4.0356, 57.852], [-3.9068, 57.8396], [-3.8571, 57.8186], [-3.8879, 57.7869], [-4.0784, 57.6771], [-4.1345, 57.5777], [-3.9885, 57.5812], [-3.8682, 57.6003], [-3.6282, 57.6623], [-3.4028, 57.7083], [-3.2945, 57.7102], [-3.0839, 57.6735], [-3.036, 57.6723], [-2.9467, 57.6893], [-2.8563, 57.6923], [-2.2441, 57.6809], [-2.0741, 57.7024], [-1.9615, 57.6767], [-1.8674, 57.6124], [-1.7779, 57.4937], [-1.7807, 57.474], [-1.8347, 57.42], [-1.9345, 57.3522], [-2.0203, 57.2589], [-2.0455, 57.2085], [-2.0624, 57.1535], [-2.0896, 57.1025], [-2.2603, 56.8633], [-2.4267, 56.7307], [-2.501, 56.6366], [-2.5927, 56.5616], [-2.681, 56.5144], [-2.7752, 56.483], [-3.0474, 56.4494], [-3.1236, 56.4253], [-3.2145, 56.3839], [-3.31, 56.3635], [-3.198, 56.3661], [-3.087, 56.3891], [-2.8852, 56.3975], [-2.6527, 56.3183], [-2.6743, 56.2534], [-2.7676, 56.2021], [-2.9798, 56.1941], [-3.1782, 56.0801], [-3.2678, 56.0451], [-3.3623, 56.0276], [-3.4804, 56.0328], [-3.6951, 56.0633], [-3.7891, 56.0952], [-3.7041, 56.0432], [-3.6078, 56.016], [-3.0487, 55.952], [-3.0151, 55.9586], [-2.8369, 56.0263], [-2.5993, 56.0273], [-2.1471, 55.903], [-2.0168, 55.808], [-1.8303, 55.6717], [-1.7288, 55.6186], [-1.6554, 55.5704], [-1.6102, 55.4981], [-1.5226, 55.2595], [-1.4227, 55.0264], [-1.2917, 54.7739], [-1.2324, 54.7037], [-1.1544, 54.6545], [-0.7593, 54.5414], [-0.6714, 54.5039], [-0.5181, 54.3951], [-0.3704, 54.2792], [-0.2329, 54.1901], [-0.0844, 54.1181], [-0.1563, 54.0806], [-0.2056, 54.0217], [-0.1688, 53.9417], [-0.1083, 53.8652], [0.0105, 53.7428], [0.1153, 53.6093], [0.0767, 53.6294], [0.0361, 53.6405], [-0.0194, 53.6372], [-0.0737, 53.6437], [-0.1738, 53.6854], [-0.27, 53.7368], [-0.4614, 53.7162], [-0.5677, 53.7254], [-0.6599, 53.724], [-0.4851, 53.6944], [-0.2937, 53.6923], [0.1283, 53.4683], [0.271, 53.3355], [0.3558, 53.16], [0.298, 53.0811], [0.2082, 53.03], [0.1244, 52.9716], [0.0459, 52.9056], [0.2798, 52.8087], [0.3302, 52.8116], [0.3819, 52.8252], [0.4316, 52.8582], [0.5155, 52.9384], [0.5588, 52.9669], [0.7045, 52.9772], [0.8268, 52.9711], [0.9485, 52.9534], [1.0556, 52.959], [1.2713, 52.9246], [1.3821, 52.8935], [1.6567, 52.7537], [1.7161, 52.6772], [1.7434, 52.5785], [1.7466, 52.469], [1.7004, 52.3689], [1.6474, 52.2785], [1.6146, 52.1618], [1.5914, 52.1198], [1.559, 52.0869], [1.4135, 51.9948], [1.3168, 51.9569], [1.276, 51.9735], [1.2324, 51.9712], [1.2278, 51.9491], [1.2738, 51.9021], [1.2744, 51.8454], [1.1885, 51.8034], [1.1012, 51.7854], [0.9551, 51.8078], [0.7522, 51.7296], [0.898, 51.6894], [0.9274, 51.6466], [0.8909, 51.5714], [0.7992, 51.5379], [0.6976, 51.523], [0.5935, 51.5195], [0.5072, 51.5011], [0.4245, 51.4656], [0.5283, 51.4845], [0.6003, 51.468], [0.6455, 51.4047], [0.6865, 51.3866], [0.8894, 51.3595], [1.0149, 51.3597], [1.2571, 51.3751], [1.3734, 51.3747], [1.4149, 51.3633], [1.4156, 51.3108], [1.3976, 51.182], [1.3655, 51.1555], [1.0444, 51.0473], [0.9786, 50.9717], [0.9602, 50.9259], [0.7724, 50.934], [0.6844, 50.8855], [0.5323, 50.8534], [0.4147, 50.8192], [0.2997, 50.776], [0.2051, 50.763], [-0.2039, 50.8144], [-0.4508, 50.8102], [-0.7853, 50.7654], [-0.8714, 50.7728], [-1.0006, 50.8156], [-1.1329, 50.8446], [-1.2851, 50.8573], [-1.4165, 50.8969], [-1.3345, 50.8208], [-1.5167, 50.7475], [-1.6008, 50.7329], [-1.6879, 50.7352], [-1.866, 50.7152], [-2.0311, 50.7254], [-2.0063, 50.6732], [-1.9621, 50.6278], [-1.9979, 50.608], [-2.0358, 50.6031], [-2.3501, 50.6374], [-2.3947, 50.6309], [-2.4334, 50.5992], [-2.5478, 50.6163], [-2.6588, 50.6697], [-2.777, 50.7056], [-2.9009, 50.7224], [-2.9994, 50.7166], [-3.4046, 50.6324], [-3.4854, 50.5479], [-3.5259, 50.4282], [-3.5844, 50.3218], [-3.6798, 50.2399], [-3.7934, 50.2292], [-3.9002, 50.2859], [-4.1034, 50.3485], [-4.1726, 50.3908], [-4.1946, 50.3933], [-4.2173, 50.3782], [-4.297, 50.3591], [-4.3795, 50.3582], [-4.5067, 50.3414], [-4.728, 50.2905], [-4.8174, 50.256], [-5.0095, 50.1607], [-5.0486, 50.1344], [-5.1185, 50.0383], [-5.2252, 50.0214], [-5.3229, 50.083], [-5.434, 50.1044], [-5.5512, 50.0834], [-5.6221, 50.0507], [-5.6552, 50.0772], [-5.6562, 50.1319], [-5.5707, 50.197], [-5.3423, 50.2461], [-5.1418, 50.3737], [-5.0435, 50.4515], [-5.0044, 50.4953], [-4.9564, 50.5231], [-4.8936, 50.5337], [-4.8613, 50.582], [-4.5829, 50.7764], [-4.56, 50.8209], [-4.5461, 50.9007], [-4.5231, 50.9774], [-4.2965, 51.0271], [-4.1882, 51.1885], [-4.1584, 51.2013], [-3.8423, 51.2309], [-3.6079, 51.2286], [-3.3751, 51.197], [-3.2558, 51.1941], [-3.136, 51.205], [-3.042, 51.2486], [-2.8813, 51.4057], [-2.7908, 51.4748], [-2.6872, 51.5373], [-2.5903, 51.6086], [-2.4331, 51.7407], [-2.5394, 51.6952], [-2.6677, 51.623], [-2.7421, 51.5811], [-2.9785, 51.5389], [-3.0804, 51.4958], [-3.2588, 51.3985], [-3.2931, 51.3904], [-3.5624, 51.4138], [-3.7627, 51.5399], [-3.8908, 51.5917], [-3.9437, 51.5975], [-3.9983, 51.5821], [-4.1153, 51.5664], [-4.2346, 51.5691], [-4.1737, 51.6273], [-4.091, 51.6599], [-4.2762, 51.6825], [-4.3276, 51.7002], [-4.3863, 51.7411], [-4.5315, 51.748], [-4.6008, 51.7376], [-4.7176, 51.6837], [-4.9023, 51.6263], [-5.1248, 51.7059], [-5.1684, 51.7407], [-5.1672, 51.8081], [-5.2006, 51.8614], [-5.2623, 51.8802], [-5.1833, 51.9497], [-5.0881, 51.9959], [-4.8785, 52.0418], [-4.5611, 52.1509], [-4.3832, 52.1973], [-4.2177, 52.2774], [-4.1494, 52.3263], [-4.0998, 52.3931], [-4.0505, 52.4751], [-3.9803, 52.5417], [-4.0484, 52.5576], [-4.0789, 52.6079], [-4.0707, 52.6588], [-4.0393, 52.7041], [-4.0674, 52.7607], [-4.1175, 52.82], [-4.1147, 52.8662], [-4.1015, 52.9155], [-4.2291, 52.9128], [-4.3564, 52.8974], [-4.4718, 52.8625], [-4.5837, 52.8149], [-4.6831, 52.8062], [-4.6814, 52.8441], [-4.6383, 52.8911], [-4.5257, 52.9582], [-4.4051, 53.0138], [-4.3622, 53.0561], [-4.3284, 53.1051], [-4.2686, 53.1445], [-4.111, 53.2189], [-3.8093, 53.3027], [-3.7642, 53.3076], [-3.6459, 53.2979], [-3.5296, 53.3105], [-3.4277, 53.3407], [-3.3262, 53.3472], [-3.0976, 53.2603], [-3.1656, 53.3947], [-3.0647, 53.4269], [-2.9186, 53.3054], [-2.8642, 53.2926], [-2.7495, 53.3102], [-2.7938, 53.3307], [-2.8454, 53.3319], [-2.9131, 53.3502], [-2.97, 53.3892], [-3.0646, 53.5128], [-3.0595, 53.5862], [-2.9957, 53.6625], [-2.9251, 53.7328], [-2.9843, 53.7467], [-3.0318, 53.7736], [-3.0454, 53.8438], [-3.0268, 53.9059], [-2.8999, 53.9607], [-2.8624, 54.0438], [-2.8465, 54.1353], [-2.8676, 54.1772], [-2.9935, 54.1705], [-3.0547, 54.1534], [-3.1097, 54.1263], [-3.166, 54.1279], [-3.3215, 54.2291], [-3.4103, 54.3056], [-3.5694, 54.4676], [-3.592, 54.5644], [-3.4646, 54.7731], [-3.2679, 54.9066], [-3.0362, 54.9531], [-3.0811, 54.962], [-3.4341, 54.9638], [-3.5504, 54.9474], [-3.6583, 54.8929], [-3.7192, 54.8761], [-3.7833, 54.8699], [-3.8416, 54.8428], [-3.8986, 54.8051], [-3.9579, 54.781], [-4.0758, 54.7872], [-4.133, 54.7792], [-4.174, 54.8011], [-4.2084, 54.8372], [-4.2534, 54.8468], [-4.3037, 54.8357], [-4.4099, 54.7871], [-4.5175, 54.7584], [-4.6476, 54.789], [-4.8181, 54.8461], [-4.8517, 54.8253], [-4.8895, 54.7723], [-4.9112, 54.6895], [-5.0323, 54.7614], [-5.1355, 54.8575], [-5.1701, 54.9179], [-5.1727, 54.9859], [-5.1167, 55.0123], [-5.0559, 54.9881], [-4.9652, 55.1495], [-4.7848, 55.3594], [-4.7211, 55.421], [-4.6768, 55.5013], [-4.6844, 55.5539], [-4.7242, 55.5983], [-4.8918, 55.6991], [-4.8896, 55.7812], [-4.8717, 55.8739], [-4.8261, 55.9295], [-4.8068, 55.9401], [-4.5841, 55.9387], [-4.6709, 55.9674], [-4.8441, 56.0512], [-4.841, 56.0809], [-4.8003, 56.1583], [-4.8191, 56.1505], [-4.8563, 56.1147], [-4.9271, 56.0281], [-4.9704, 56.0079], [-5.0928, 55.9873], [-5.115, 55.9446], [-5.1347, 55.9335], [-5.1959, 55.9287], [-5.2146, 55.8889], [-5.2282, 55.8863], [-5.2456, 55.9292], [-5.2473, 56.0004], [-5.2229, 56.0658], [-5.1764, 56.117], [-4.997, 56.2334], [-5.0843, 56.1975], [-5.2823, 56.0899], [-5.3834, 56.0192], [-5.4104, 55.9954], [-5.4189, 55.9752], [-5.4183, 55.9521], [-5.3729, 55.8277], [-5.3858, 55.7701], [-5.5564, 55.3896], [-5.5888, 55.3514], [-5.6185, 55.3314], [-5.6465, 55.3269], [-5.7307, 55.3341], [-5.7682, 55.3626], [-5.7679, 55.395], [-5.7521, 55.4435], [-5.6813, 55.624], [-5.6506, 55.6741], [-5.605, 55.7208], [-5.5045, 55.8024], [-5.5069, 55.8077], [-5.5739, 55.7917], [-5.6024, 55.797], [-5.6229, 55.8131], [-5.6096, 56.0553], [-5.5553, 56.135], [-5.535, 56.2508], [-5.4879, 56.35], [-5.4334, 56.4223], [-5.3919, 56.5148], [-5.3294, 56.5559], [-5.3127, 56.6188], [-5.2426, 56.6869], [-5.1884, 56.7581], [-5.2176, 56.751], [-5.5642, 56.5657], [-5.6524, 56.532], [-5.7728, 56.541], [-5.8648, 56.5619], [-5.9368, 56.6057], [-5.9689, 56.6899], [-6.0577, 56.6921], [-6.1337, 56.7067], [-6.1328, 56.718], [-6.0347, 56.7639], [-5.8776, 56.7796], [-5.7306, 56.8531], [-5.8614, 56.9027], [-5.8504, 56.9184], [-5.7363, 56.9606], [-5.5913, 57.1023], [-5.5619, 57.2327], [-5.6312, 57.2939], [-5.6563, 57.3341], [-5.7949, 57.3788], [-5.8181, 57.4361], [-5.802, 57.468], [-5.7567, 57.4992], [-5.6886, 57.5235], [-5.5818, 57.5468], [-5.6788, 57.5717], [-5.7149, 57.6011], [-5.7424, 57.6437], [-5.7449, 57.6683], [-5.6947, 57.7782], [-5.6655, 57.8235], [-5.6083, 57.8813], [-5.349, 57.8781], [-5.3192, 57.9036], [-5.2898, 57.9046], [-5.1572, 57.8813], [-5.1769, 57.9064], [-5.3937, 58.0436], [-5.4132, 58.0697], [-5.3514, 58.1437], [-5.3469, 58.1767], [-5.356, 58.2119], [-5.3383, 58.2387], [-5.2695, 58.2514], [-5.06, 58.2501], [-5.0083, 58.2626], [-5.0318, 58.2983], [-5.0806, 58.3452], [-5.0901, 58.3845], [-5.0787, 58.4193], [-5.076, 58.4893], [-5.0665, 58.5202], [-5.0167, 58.5666], [-4.9756, 58.5803], [-4.9247, 58.5884], [-4.8096, 58.5729], [-4.7658, 58.5542], [-4.7154, 58.51], [-4.6782, 58.5136], [-4.535, 58.5616], [-4.4919, 58.5685], [-4.4333, 58.5128], [-4.1886, 58.5572], [-3.8595, 58.5771], [-3.6618, 58.6063], [-3.4536, 58.6169], [-3.2591, 58.65], [-3.0531, 58.6348], [-3.0462, 58.6155], [-3.057, 58.5888], [-3.1097, 58.5155]]]}, "properties": {}}, {"type": "Feature", "geometry": {"type": "Polygon", "coordinates": [[[-7.0, 55.1181], [-6.9472, 55.1825], [-6.889, 55.1889], [-6.8249, 55.1807], [-6.6988, 55.1935], [-6.475, 55.241], [-6.3753, 55.2418], [-6.2342, 55.2168], [-6.1292, 55.2174], [-6.0358, 55.1445], [-5.9857, 55.0297], [-5.8692, 54.9162], [-5.7168, 54.8175], [-5.7107, 54.7571], [-5.7652, 54.7247], [-5.8791, 54.6844], [-5.8786, 54.6413], [-5.8035, 54.663], [-5.7386, 54.673], [-5.5825, 54.6634], [-5.5279, 54.6196], [-5.4902, 54.5541], [-5.4704, 54.5002], [-5.4839, 54.4417], [-5.5259, 54.4602], [-5.5686, 54.5126], [-5.616, 54.5367], [-5.6711, 54.5498], [-5.6461, 54.4779], [-5.656, 54.3817], [-5.6319, 54.3727], [-5.5578, 54.371], [-5.6068, 54.2726], [-5.7081, 54.2458], [-5.8262, 54.2358], [-5.8546, 54.201], [-5.8761, 54.1561], [-5.9377, 54.0891], [-6.019, 54.0513], [-6.1195, 54.0589], [-6.218, 54.0887], [-6.1757, 54.0535], [-6.1569, 54.0172], [-6.2307, 54.0036], [-6.3076, 54.011], [-6.3452, 53.9872], [-6.3476, 53.9413], [-6.3216, 53.8822], [-6.2701, 53.8402], [-6.229, 53.7457], [-6.1949, 53.6409], [-6.1418, 53.5775], [-6.131, 53.4989], [-6.1388, 53.4603], [-6.1291, 53.3909], [-6.1517, 53.3664], [-6.1347, 53.3012], [-6.0723, 53.1663], [-6.045, 53.0912], [-6.0274, 52.9271], [-6.0715, 52.8656], [-6.1307, 52.8073], [-6.1693, 52.7381], [-6.1992, 52.6635], [-6.2172, 52.5431], [-6.3454, 52.402], [-6.4, 52.3669], [-6.4632, 52.3454], [-6.325, 52.2467], [-6.4379, 52.2027], [-6.5611, 52.1888], [-6.6973, 52.2135], [-6.7822, 52.2105], [-6.8597, 52.1786], [-6.8902, 52.1592], [-6.9146, 52.1686], [-6.9658, 52.2495], [-7.0, 52.1732], [-7.0, 55.2495], [-6.9617, 55.2379], [-7.0, 55.2138]]]}, "properties": {}}, {"type": "Feature", "geometry": {"type": "Polygon", "coordinates": [[[13.9383, 40.7056], [13.8937, 40.697], [13.8677, 40.7087], [13.8535, 40.7241], [13.8712, 40.7618], [13.9621, 40.7394], [13.9608, 40.7182], [13.9383, 40.7056]]]}, "properties": {}}, {"type": "Feature", "geometry": {"type": "Polygon", "coordinates": [[[6.3334, 53.5107], [6.1933, 53.4768], [6.1593, 53.4839], [6.1677, 53.4937], [6.2909, 53.515], [6.3334, 53.5107]]]}, "properties": {}}, {"type": "Feature", "geometry": {"type": "Polygon", "coordinates": [[[5.9293, 53.4588], [5.732, 53.4426], [5.6653, 53.4549], [5.6543, 53.4665], [5.7081, 53.4734], [5.8763, 53.4751], [5.9282, 53.465], [5.9293, 53.4588]]]}, "properties": {}}, {"type": "Feature", "geometry": {"type": "Polygon", "coordinates": [[[5.1086, 53.308], [4.9237, 53.2346], [4.9079, 53.2462], [5.0271, 53.3102], [5.1086, 53.308]]]}, "properties": {}}, {"type": "Feature", "geometry": {"type": "Polygon", "coordinates": [[[5.3258, 53.3857], [5.2326, 53.3778], [5.1902, 53.3918], [5.4151, 53.4314], [5.5574, 53.4436], [5.5826, 53.4381], [5.3258, 53.3857]]]}, "properties": {}}, {"type": "Feature", "geometry": {"type": "Polygon", "coordinates": [[[16.6507, 42.9966], [16.8355, 42.9687], [16.9711, 42.9815], [17.0, 42.9775], [17.0, 42.9252], [16.9775, 42.9278], [16.8507, 42.8955], [16.7389, 42.9127], [16.6964, 42.9337], [16.6663, 42.9599], [16.6507, 42.9966]]]}, "properties": {}}, {"type": "Feature", "geometry": {"type": "Polygon", "coordinates": [[[17.0, 43.1176], [16.6792, 43.1231], [16.5498, 43.1439], [16.4059, 43.1974], [16.3765, 43.2138], [16.5214, 43.2292], [16.656, 43.2138], [16.6973, 43.175], [17.0, 43.1491]]]}, "properties": {}}, {"type": "Feature", "geometry": {"type": "Polygon", "coordinates": [[[16.7853, 43.2707], [16.6274, 43.2681], [16.4903, 43.2862], [16.4231, 43.3172], [16.4281, 43.3434], [16.4489, 43.3871], [16.6016, 43.3819], [16.8344, 43.3508], [16.8913, 43.3146], [16.8736, 43.2979], [16.7853, 43.2707]]]}, "properties": {}}, {"type": "Feature", "geometry": {"type": "Polygon", "coordinates": [[[-2.5123, 49.4945], [-2.5474, 49.4287], [-2.639, 49.4509], [-2.6461, 49.4682], [-2.5422, 49.5066], [-2.5209, 49.5063], [-2.5123, 49.4945]]]}, "properties": {}}, {"type": "Feature", "geometry": {"type": "Polygon", "coordinates": [[[-2.0187, 49.2313], [-2.0099, 49.1808], [-2.0538, 49.1698], [-2.091, 49.1874], [-2.1657, 49.1874], [-2.2358, 49.1764], [-2.2205, 49.2664], [-2.0822, 49.2554], [-2.0187, 49.2313]]]}, "properties": {}}, {"type": "Feature", "geometry": {"type": "Polygon", "coordinates": [[[-4.4121, 54.1854], [-4.6143, 54.0587], [-4.6961, 54.0814], [-4.7658, 54.0694], [-4.7854, 54.073], [-4.7456, 54.1188], [-4.6987, 54.2249], [-4.6148, 54.2669], [-4.5086, 54.3767], [-4.4247, 54.4072], [-4.3956, 54.4029], [-4.3772, 54.3926], [-4.338, 54.2691], [-4.3923, 54.2254], [-4.4121, 54.1854]]]}, "properties": {}}, {"type": "Feature", "geometry": {"type": "Polygon", "coordinates": [[[-6.6076, 56.585], [-6.6645, 56.5794], [-6.6686, 56.5936], [-6.5699, 56.6612], [-6.5061, 56.6724], [-6.4837, 56.6658], [-6.5301, 56.6266], [-6.6076, 56.585]]]}, "properties": {}}, {"type": "Feature", "geometry": {"type": "Polygon", "coordinates": [[[-5.1054, 55.4488], [-5.2315, 55.4481], [-5.2771, 55.4567], [-5.3315, 55.4811], [-5.3927, 55.6184], [-5.3708, 55.6669], [-5.3457, 55.6907], [-5.3181, 55.7092], [-5.2516, 55.7169], [-5.1854, 55.691], [-5.1604, 55.6668], [-5.105, 55.574], [-5.0947, 55.4943], [-5.1054, 55.4488]]]}, "properties": {}}, {"type": "Feature", "geometry": {"type": "Polygon", "coordinates": [[[-5.7779, 56.3443], [-6.1762, 56.2887], [-6.3134, 56.2937], [-6.3258, 56.3209], [-6.2985, 56.3392], [-6.1849, 56.3569], [-6.1389, 56.4906], [-6.3106, 56.5521], [-6.3197, 56.5694], [-6.3063, 56.5988], [-6.2863, 56.6119], [-6.1821, 56.643], [-6.1383, 56.6499], [-6.1027, 56.6457], [-6.0296, 56.6098], [-5.9467, 56.5345], [-5.836, 56.5226], [-5.7608, 56.4907], [-5.7779, 56.3443]]]}, "properties": {}}, {"type": "Feature", "geometry": {"type": "Polygon", "coordinates": [[[-6.1289, 55.9306], [-6.0928, 55.8021], [-6.0576, 55.7225], [-6.0553, 55.6953], [-6.0884, 55.6575], [-6.2532, 55.6072], [-6.3051, 55.6069], [-6.3072, 55.6191], [-6.27, 55.6703], [-6.3021, 55.7284], [-6.2864, 55.7725], [-6.3018, 55.7806], [-6.3339, 55.7744], [-6.452, 55.7042], [-6.4914, 55.6973], [-6.4957, 55.7116], [-6.4665, 55.769], [-6.4628, 55.8083], [-6.4453, 55.8324], [-6.4132, 55.8546], [-6.375, 55.8713], [-6.3441, 55.8737], [-6.3113, 55.8565], [-6.2157, 55.9046], [-6.1289, 55.9306]]]}, "properties": {}}, {"type": "Feature", "geometry": {"type": "Polygon", "coordinates": [[[-5.9701, 55.8146], [-5.9909, 55.8038], [-6.0416, 55.8068], [-6.0604, 55.8229], [-6.0707, 55.8477], [-6.072, 55.8931], [-6.0413, 55.9256], [-5.9118, 55.9748], [-5.9703, 55.9922], [-5.9727, 56.0044], [-5.9391, 56.0453], [-5.7996, 56.1088], [-5.7623, 56.1203], [-5.7251, 56.1186], [-5.7972, 56.0056], [-5.9701, 55.8146]]]}, "properties": {}}, {"type": "Feature", "geometry": {"type": "Polygon", "coordinates": [[[-1.2079, 60.0], [-1.2453, 59.9712], [-1.2838, 59.8869], [-1.2995, 59.8787], [-1.3559, 59.9111], [-1.317, 60.0]]]}, "properties": {}}, {"type": "Feature", "geometry": {"type": "Polygon", "coordinates": [[[-3.1649, 58.7942], [-3.2221, 58.781], [-3.2788, 58.7819], [-3.3672, 58.8397], [-3.4008, 58.8818], [-3.3947, 58.9096], [-3.3574, 58.919], [-3.2719, 58.9053], [-3.2276, 58.8572], [-3.2221, 58.8259], [-3.2116, 58.8136], [-3.1585, 58.8012], [-3.1649, 58.7942]]]}, "properties": {}}, {"type": "Feature", "geometry": {"type": "Polygon", "coordinates": [[[-4.1968, 53.3214], [-4.1549, 53.3028], [-4.0494, 53.3058], [-4.0843, 53.2643], [-4.2004, 53.2181], [-4.2786, 53.1724], [-4.373, 53.1342], [-4.4188, 53.178], [-4.472, 53.1764], [-4.5532, 53.2604], [-4.5679, 53.3865], [-4.4617, 53.4193], [-4.3151, 53.4172], [-4.1968, 53.3214]]]}, "properties": {}}, {"type": "Feature", "geometry": {"type": "Polygon", "coordinates": [[[-2.5489, 59.2313], [-2.6621, 59.2302], [-2.6036, 59.2893], [-2.5356, 59.3041], [-2.407, 59.2976], [-2.4298, 59.271], [-2.5489, 59.2313]]]}, "properties": {}}, {"type": "Feature", "geometry": {"type": "Polygon", "coordinates": [[[-2.9294, 58.7416], [-2.939, 58.7386], [-2.9754, 58.7569], [-3.0354, 58.8227], [-2.9412, 58.8357], [-2.8964, 58.8276], [-2.9131, 58.7996], [-2.9294, 58.7416]]]}, "properties": {}}, {"type": "Feature", "geometry": {"type": "Polygon", "coordinates": [[[-3.0574, 59.0296], [-3.0707, 59.005], [-2.9947, 59.0056], [-2.8846, 58.9845], [-2.8179, 58.9819], [-2.7625, 58.9558], [-2.793, 58.9069], [-2.8262, 58.8933], [-2.8638, 58.8905], [-2.9948, 58.9394], [-3.1666, 58.9191], [-3.2008, 58.9253], [-3.2233, 58.9388], [-3.2326, 58.9555], [-3.2328, 58.9896], [-3.2421, 58.9997], [-3.3043, 58.9674], [-3.3316, 58.9712], [-3.3471, 58.9867], [-3.3537, 59.0187], [-3.3468, 59.065], [-3.3104, 59.1308], [-3.2486, 59.1439], [-3.1565, 59.1363], [-3.0511, 59.099], [-3.0192, 59.076], [-3.02, 59.0577], [-3.0574, 59.0296]]]}, "properties": {}}, {"type": "Feature", "geometry": {"type": "Polygon", "coordinates": [[[-2.7294, 59.1868], [-2.8152, 59.1619], [-2.8519, 59.1825], [-2.8614, 59.2468], [-2.9638, 59.2744], [-3.0135, 59.2915], [-3.0521, 59.3239], [-3.0422, 59.3338], [-2.9755, 59.3471], [-2.8616, 59.2883], [-2.815, 59.2408], [-2.7307, 59.2268], [-2.7199, 59.2195], [-2.7294, 59.1868]]]}, "properties": {}}, {"type": "Feature", "geometry": {"type": "Polygon", "coordinates": [[[-6.1987, 58.3633], [-6.3258, 58.1889], [-6.3756, 58.1846], [-6.4193, 58.141], [-6.5546, 58.0929], [-6.4365, 58.0919], [-6.4034, 58.0759], [-6.4024, 58.0414], [-6.4252, 58.0213], [-6.5781, 57.9414], [-6.6833, 57.911], [-6.7966, 57.8275], [-6.8538, 57.8265], [-6.9104, 57.7734], [-6.9569, 57.75], [-6.9831, 57.75], [-7.0, 57.7566], [-7.0, 57.8472], [-6.956, 57.8649], [-6.9441, 57.8937], [-6.8568, 57.9235], [-6.8642, 57.9329], [-7.0, 57.9741], [-7.0, 58.0433], [-6.9853, 58.0505], [-7.0, 58.0525], [-7.0, 58.2266], [-6.9496, 58.2177], [-6.8862, 58.1826], [-6.8123, 58.1961], [-6.7265, 58.1894], [-6.7247, 58.1976], [-6.7877, 58.2839], [-6.7765, 58.3015], [-6.7423, 58.3216], [-6.5442, 58.3832], [-6.2972, 58.4866], [-6.2375, 58.5028], [-6.2194, 58.4887], [-6.1942, 58.4351], [-6.1987, 58.3633]]]}, "properties": {}}, {"type": "Feature", "geometry": {"type": "Polygon", "coordinates": [[[-6.2791, 56.9647], [-6.3087, 56.9518], [-6.3462, 56.9543], [-6.3834, 56.9709], [-6.4326, 57.0179], [-6.3224, 57.0505], [-6.2782, 57.0314], [-6.2613, 57.0095], [-6.2605, 56.9853], [-6.2791, 56.9647]]]}, "properties": {}}, {"type": "Feature", "geometry": {"type": "Polygon", "coordinates": [[[-6.1447, 57.505], [-6.1461, 57.4608], [-6.1638, 57.4088], [-6.1408, 57.3537], [-6.1355, 57.3143], [-6.0934, 57.3017], [-6.0676, 57.2835], [-5.8803, 57.2632], [-5.706, 57.2689], [-5.6725, 57.2527], [-5.6687, 57.2269], [-5.6962, 57.1984], [-5.7954, 57.1465], [-5.9138, 57.0626], [-5.9491, 57.0452], [-5.9873, 57.0444], [-6.0147, 57.052], [-6.0344, 57.2012], [-6.1627, 57.1821], [-6.2661, 57.1843], [-6.3227, 57.2025], [-6.3624, 57.2375], [-6.4424, 57.3275], [-6.6754, 57.3629], [-6.7413, 57.4125], [-6.7611, 57.4424], [-6.7527, 57.4589], [-6.7042, 57.4958], [-6.6435, 57.4826], [-6.6059, 57.4907], [-6.583, 57.5071], [-6.5835, 57.5207], [-6.6153, 57.5527], [-6.6168, 57.5627], [-6.3785, 57.6033], [-6.3577, 57.6668], [-6.306, 57.672], [-6.2469, 57.6512], [-6.1661, 57.5853], [-6.1447, 57.505]]]}, "properties": {}}, {"type": "Feature", "geometry": {"type": "Polygon", "coordinates": [[[16.5285, 56.2905], [16.4771, 56.2402], [16.4316, 56.2437], [16.4013, 56.3109], [16.3941, 56.4836], [16.4123, 56.569], [16.6304, 56.8769], [16.7277, 56.902], [16.8646, 57.0907], [16.9016, 57.1746], [16.9609, 57.2502], [16.996, 57.3178], [17.0, 57.3215], [17.0, 57.1378], [16.8837, 56.9852], [16.8383, 56.8405], [16.778, 56.8052], [16.5285, 56.2905]]]}, "properties": {}}, {"type": "Feature", "geometry": {"type": "Polygon", "coordinates": [[[15.0877, 55.0219], [15.0508, 55.0049], [14.8855, 55.033], [14.6842, 55.1022], [14.7137, 55.238], [14.7653, 55.2967], [15.1326, 55.1445], [15.1371, 55.0872], [15.0877, 55.0219]]]}, "properties": {}}, {"type": "Feature", "geometry": {"type": "Polygon", "coordinates": [[[13.7092, 54.3827], [13.7342, 54.3154], [13.7073, 54.2812], [13.5949, 54.3382], [13.482, 54.3374], [13.4146, 54.2496], [13.3644, 54.2458], [13.19, 54.3256], [13.1621, 54.3646], [13.1563, 54.3969], [13.1813, 54.509], [13.1767, 54.5442], [13.2314, 54.5828], [13.2399, 54.6384], [13.3368, 54.6971], [13.4228, 54.6993], [13.4501, 54.6496], [13.4912, 54.6154], [13.636, 54.577], [13.6576, 54.5596], [13.6707, 54.5354], [13.6033, 54.4882], [13.5805, 54.464], [13.6019, 54.4251], [13.7092, 54.3827]]]}, "properties": {}}, {"type": "Feature", "geometry": {"type": "Polygon", "coordinates": [[[12.5492, 54.9658], [12.511, 54.9509], [12.3575, 54.9618], [12.1845, 54.8925], [12.1188, 54.9144], [12.1437, 54.9587], [12.1617, 54.9748], [12.2199, 54.9936], [12.2588, 55.0211], [12.274, 55.0641], [12.3101, 55.0409], [12.4172, 55.0312], [12.4695, 55.0175], [12.5133, 54.9973], [12.5492, 54.9658]]]}, "properties": {}}, {"type": "Feature", "geometry": {"type": "Polygon", "coordinates": [[[12.6657, 55.5965], [12.5716, 55.554], [12.5509, 55.5562], [12.5203, 55.6146], [12.5699, 55.6501], [12.5992, 55.6802], [12.62, 55.6793], [12.6484, 55.6468], [12.6657, 55.5965]]]}, "properties": {}}, {"type": "Feature", "geometry": {"type": "Polygon", "coordinates": [[[11.3614, 54.8916], [11.5384, 54.8296], [11.6581, 54.8332], [11.7396, 54.8074], [11.759, 54.7677], [11.7659, 54.6794], [11.6804, 54.6537], [11.5859, 54.6625], [11.4574, 54.6289], [11.0355, 54.7731], [11.0417, 54.8934], [11.0586, 54.9406], [11.2585, 54.9518], [11.3614, 54.8916]]]}, "properties": {}}, {"type": "Feature", "geometry": {"type": "Polygon", "coordinates": [[[10.4844, 54.8476], [10.4173, 54.8372], [10.3405, 54.8589], [10.2156, 54.941], [10.1999, 54.9627], [10.2655, 54.9488], [10.347, 54.906], [10.4137, 54.8968], [10.5049, 54.8605], [10.4844, 54.8476]]]}, "properties": {}}, {"type": "Feature", "geometry": {"type": "Polygon", "coordinates": [[[10.0612, 54.8864], [9.9571, 54.8725], [9.9039, 54.8966], [9.8063, 54.906], [9.7712, 55.0599], [9.7812, 55.069], [9.8304, 55.0583], [9.9988, 54.9865], [10.0577, 54.9079], [10.0612, 54.8864]]]}, "properties": {}}, {"type": "Feature", "geometry": {"type": "Polygon", "coordinates": [[[10.7341, 54.7507], [10.6897, 54.7451], [10.6295, 54.8261], [10.6217, 54.8514], [10.6925, 54.9033], [10.7383, 54.962], [10.8567, 55.0522], [10.925, 55.1579], [10.9511, 55.1562], [10.9208, 55.0621], [10.7652, 54.7997], [10.7341, 54.7507]]]}, "properties": {}}, {"type": "Feature", "geometry": {"type": "Polygon", "coordinates": [[[10.6073, 55.7831], [10.5903, 55.7651], [10.527, 55.7838], [10.5203, 55.8485], [10.5443, 55.9066], [10.5161, 55.9585], [10.5472, 55.9919], [10.6363, 55.9142], [10.6617, 55.8776], [10.6273, 55.8339], [10.6073, 55.7831]]]}, "properties": {}}, {"type": "Feature", "geometry": {"type": "Polygon", "coordinates": [[[11.2828, 54.418], [11.1293, 54.416], [11.0707, 54.456], [11.0117, 54.4662], [11.0435, 54.5155], [11.085, 54.5334], [11.2336, 54.5013], [11.2803, 54.4384], [11.2828, 54.418]]]}, "properties": {}}, {"type": "Feature", "geometry": {"type": "Polygon", "coordinates": [[[11.0521, 57.2525], [11.0114, 57.2291], [10.8738, 57.2623], [10.9346, 57.3086], [11.0857, 57.3299], [11.1745, 57.3229], [11.0769, 57.2769], [11.0521, 57.2525]]]}, "properties": {}}, {"type": "Feature", "geometry": {"type": "Polygon", "coordinates": [[[8.3077, 54.787], [8.2847, 54.7671], [8.2957, 54.9083], [8.4052, 55.0587], [8.4515, 55.0554], [8.4041, 55.0147], [8.3904, 54.9863], [8.3712, 54.9294], [8.3799, 54.8999], [8.6296, 54.8917], [8.6006, 54.8654], [8.3474, 54.8476], [8.3077, 54.787]]]}, "properties": {}}, {"type": "Feature", "geometry": {"type": "Polygon", "coordinates": [[[-1.1783, 45.9041], [-1.2136, 45.8166], [-1.2803, 45.8971], [-1.3687, 45.9677], [-1.3889, 46.033], [-1.3887, 46.0504], [-1.2851, 46.0027], [-1.1783, 45.9041]]]}, "properties": {}}, {"type": "Feature", "geometry": {"type": "Polygon", "coordinates": [[[-1.0656, 50.6902], [-1.1494, 50.6557], [-1.1758, 50.6152], [-1.1961, 50.5992], [-1.2515, 50.5888], [-1.3063, 50.5885], [-1.5153, 50.6698], [-1.5634, 50.6661], [-1.5157, 50.7033], [-1.3858, 50.7335], [-1.3128, 50.7735], [-1.1442, 50.7347], [-1.0656, 50.6902]]]}, "properties": {}}, {"type": "Feature", "geometry": {"type": "Polygon", "coordinates": [[[4.8861, 53.0707], [4.7871, 52.9998], [4.7268, 53.0196], [4.7092, 53.036], [4.7398, 53.0913], [4.8864, 53.1833], [4.8861, 53.0707]]]}, "properties": {}}, {"type": "Feature", "geometry": {"type": "Polygon", "coordinates": [[[10.3951, 42.8582], [10.4283, 42.8192], [10.4322, 42.7966], [10.41, 42.771], [10.4193, 42.7132], [10.3356, 42.7611], [10.209, 42.7369], [10.1312, 42.742], [10.1098, 42.7851], [10.1275, 42.8103], [10.2482, 42.8158], [10.2857, 42.8281], [10.359, 42.8223], [10.3951, 42.8582]]]}, "properties": {}}, {"type": "Feature", "geometry": {"type": "Polygon", "coordinates": [[[8.4789, 39.0675], [8.4397, 39.0], [8.3944, 39.0], [8.3609, 39.0387], [8.3586, 39.0988], [8.3668, 39.1159], [8.4406, 39.0906], [8.4789, 39.0675]]]}, "properties": {}}, {"type": "Feature", "geometry": {"type": "Polygon", "coordinates": [[[8.286, 41.0398], [8.2527, 40.9941], [8.2057, 40.9975], [8.224, 41.0313], [8.2674, 41.0991], [8.3202, 41.1219], [8.3438, 41.1016], [8.3189, 41.0627], [8.286, 41.0398]]]}, "properties": {}}, {"type": "Feature", "geometry": {"type": "Polygon", "coordinates": [[[4.2937, 39.8418], [4.2753, 39.8303], [3.9677, 39.9459], [3.8672, 39.9587], [3.8427, 39.9764], [3.8454, 40.0365], [3.8534, 40.063], [4.0592, 40.0751], [4.2258, 40.0324], [4.3151, 39.9172], [4.3221, 39.8975], [4.2937, 39.8418]]]}, "properties": {}}, {"type": "Feature", "geometry": {"type": "Polygon", "coordinates": [[[1.3008, 39.0], [1.3025, 39.0312], [1.3486, 39.0808], [1.5645, 39.121], [1.6132, 39.0874], [1.6236, 39.0388], [1.5765, 39.0]]]}, "properties": {}}, {"type": "Feature", "geometry": {"type": "Polygon", "coordinates": [[[15.2311, 44.0623], [15.2467, 44.0271], [15.1219, 44.0933], [15.0746, 44.1378], [15.0658, 44.1577], [15.2311, 44.0623]]]}, "properties": {}}, {"type": "Feature", "geometry": {"type": "Polygon", "coordinates": [[[14.8103, 44.9771], [14.687, 44.9556], [14.6283, 44.9939], [14.613, 45.0254], [14.5117, 45.0354], [14.4504, 45.0792], [14.4379, 45.0986], [14.5246, 45.1468], [14.5711, 45.2248], [14.63, 45.178], [14.7012, 45.09], [14.7392, 45.0655], [14.8103, 44.9771]]]}, "properties": {}}, {"type": "Feature", "geometry": {"type": "Polygon", "coordinates": [[[14.8314, 44.7589], [14.8566, 44.7148], [14.7625, 44.7546], [14.6782, 44.7699], [14.6604, 44.7998], [14.6725, 44.8244], [14.6905, 44.8481], [14.7542, 44.8448], [14.7638, 44.8214], [14.8314, 44.7589]]]}, "properties": {}}, {"type": "Feature", "geometry": {"type": "Polygon", "coordinates": [[[15.1885, 44.3357], [15.1626, 44.3092], [15.0979, 44.3582], [15.0386, 44.393], [14.9961, 44.4343], [14.9128, 44.4858], [14.8847, 44.5447], [14.7604, 44.6647], [14.7419, 44.6974], [14.8038, 44.6487], [14.8554, 44.6183], [14.898, 44.6108], [15.0064, 44.5342], [15.113, 44.4357], [15.2399, 44.3502], [15.2136, 44.3476], [15.1885, 44.3357]]]}, "properties": {}}, {"type": "Feature", "geometry": {"type": "Polygon", "coordinates": [[[15.1888, 43.9224], [15.203, 43.9077], [15.2017, 43.8978], [15.1498, 43.9118], [15.1358, 43.9073], [14.8913, 44.1255], [14.865, 44.168], [14.9525, 44.1172], [15.1888, 43.9224]]]}, "properties": {}}, {"type": "Feature", "geometry": {"type": "Polygon", "coordinates": [[[15.3714, 43.9738], [15.4372, 43.8995], [15.3742, 43.9148], [15.3086, 43.9608], [15.27, 44.0107], [15.3714, 43.9738]]]}, "properties": {}}, {"type": "Feature", "geometry": {"type": "Polygon", "coordinates": [[[14.4881, 44.6601], [14.4804, 44.6212], [14.4195, 44.6703], [14.3889, 44.7583], [14.3124, 44.9004], [14.3025, 44.9404], [14.3422, 44.9799], [14.34, 45.02], [14.2858, 45.1446], [14.3313, 45.165], [14.3582, 45.1674], [14.3691, 45.081], [14.3938, 45.0312], [14.4674, 44.9702], [14.4525, 44.8692], [14.4676, 44.7253], [14.4825, 44.6934], [14.4881, 44.6601]]]}, "properties": {}}, {"type": "Feature", "geometry": {"type": "Polygon", "coordinates": [[[3.9491, 51.7395], [4.0468, 51.6849], [4.0676, 51.6675], [4.0751, 51.6488], [3.951, 51.6271], [3.819, 51.694], [3.7318, 51.6782], [3.699, 51.7099], [3.6985, 51.7297], [3.7891, 51.7464], [3.9491, 51.7395]]]}, "properties": {}}, {"type": "Feature", "geometry": {"type": "Polygon", "coordinates": [[[8.5879, 54.7127], [8.5489, 54.6882], [8.4538, 54.6911], [8.4004, 54.7141], [8.4177, 54.7387], [8.4682, 54.7574], [8.51, 54.7603], [8.5734, 54.7487], [8.5879, 54.7127]]]}, "properties": {}}, {"type": "Feature", "geometry": {"type": "Polygon", "coordinates": [[[6.7348, 53.5825], [6.6421, 53.5792], [6.6686, 53.6057], [6.7546, 53.6255], [6.8009, 53.6255], [6.7348, 53.5825]]]}, "properties": {}}, {"type": "Feature", "geometry": {"type": "Polygon", "coordinates": [[[17.0, 58.6641], [16.9781, 58.6542], [16.6394, 58.6512], [16.3158, 58.6636], [16.2143, 58.6367], [16.3181, 58.6283], [16.3908, 58.6019], [16.478, 58.6129], [16.683, 58.5997], [16.7885, 58.5853], [16.9238, 58.4926], [16.8243, 58.4596], [16.652, 58.4343], [16.7166, 58.3029], [16.7699, 58.2143], [16.7001, 58.1608], [16.6949, 57.9175], [16.597, 57.9129], [16.5554, 57.8123], [16.5862, 57.7609], [16.5838, 57.6417], [16.6042, 57.5683], [16.6522, 57.5007], [16.6309, 57.4302], [16.476, 57.2651], [16.4795, 57.1877], [16.5073, 57.1417], [16.5279, 57.0682], [16.4575, 56.9268], [16.4078, 56.8087], [16.3487, 56.7093], [16.2165, 56.59], [16.1507, 56.5008], [15.9967, 56.2226], [15.9203, 56.1674], [15.8267, 56.125], [15.7223, 56.1642], [15.6266, 56.1856], [15.5097, 56.183], [15.3266, 56.1508], [15.0512, 56.1722], [14.782, 56.1619], [14.714, 56.1341], [14.7548, 56.0332], [14.6556, 56.0199], [14.5586, 56.0486], [14.4732, 56.0144], [14.402, 55.9768], [14.2619, 55.8875], [14.215, 55.8326], [14.2029, 55.7291], [14.2765, 55.6364], [14.3417, 55.5277], [14.1737, 55.3966], [14.08, 55.3922], [13.8063, 55.4286], [13.3214, 55.3464], [12.8858, 55.4114], [12.9406, 55.4816], [12.9388, 55.5332], [12.9634, 55.6126], [12.978, 55.6938], [12.9739, 55.7481], [12.942, 55.8061], [12.8346, 55.8818], [12.5926, 56.1376], [12.521, 56.2456], [12.4712, 56.2905], [12.507, 56.293], [12.7063, 56.235], [12.7528, 56.2421], [12.8017, 56.2639], [12.7422, 56.3469], [12.6911, 56.3844], [12.6564, 56.4406], [12.7731, 56.4558], [12.8574, 56.4524], [12.9195, 56.5156], [12.8837, 56.6177], [12.7932, 56.6492], [12.7176, 56.6628], [12.5727, 56.8233], [12.4215, 56.9064], [12.1519, 57.227], [12.0532, 57.447], [11.9615, 57.4261], [11.917, 57.5219], [11.8851, 57.6127], [11.8787, 57.6794], [11.735, 57.7177], [11.7291, 57.7645], [11.7032, 57.9732], [11.549, 58.0012], [11.4493, 58.1184], [11.4315, 58.34], [11.33, 58.3803], [11.2482, 58.3691], [11.2521, 58.4241], [11.2716, 58.4756], [11.2238, 58.6799], [11.2079, 58.8664], [11.1691, 58.9227], [11.1472, 58.9886], [11.1669, 59.0456], [11.1958, 59.0783], [11.2953, 59.0869], [11.3883, 59.0365], [11.3864, 59.0657], [11.3659, 59.1045], [11.1321, 59.1432], [11.0908, 59.1418], [10.9989, 59.1645], [10.945, 59.1709], [10.8345, 59.1839], [10.7426, 59.296], [10.6449, 59.3892], [10.6311, 59.4282], [10.6344, 59.6025], [10.6045, 59.68], [10.5953, 59.7646], [10.5339, 59.6958], [10.5695, 59.5871], [10.4938, 59.5415], [10.3981, 59.5193], [10.4071, 59.4557], [10.4464, 59.4436], [10.4546, 59.3775], [10.4313, 59.2796], [10.2432, 59.0621], [10.2052, 59.0387], [10.1794, 59.0093], [10.0831, 59.0288], [9.9596, 58.9682], [9.8426, 58.9585], [9.8002, 59.0271], [9.6352, 59.1178], [9.5572, 59.1127], [9.6271, 59.0679], [9.6961, 59.0097], [9.6569, 58.9712], [9.6185, 58.946], [9.5511, 58.933], [9.31, 58.8568], [9.3958, 58.8057], [9.3229, 58.7476], [9.2387, 58.739], [9.1937, 58.7119], [9.1781, 58.675], [8.9284, 58.57], [8.5214, 58.3006], [8.3122, 58.2245], [8.1661, 58.1453], [8.0374, 58.1473], [7.8756, 58.08], [7.4659, 58.0209], [7.1941, 58.0477], [7.0049, 58.0242], [6.9034, 58.0705], [6.8902, 58.1023], [6.8953, 58.1208], [6.9123, 58.1429], [6.8771, 58.1507], [6.8028, 58.1545], [6.7711, 58.1322], [6.7668, 58.0815], [6.7314, 58.0683], [6.5905, 58.0973], [6.5551, 58.1234], [6.6058, 58.1764], [6.6925, 58.224], [6.6768, 58.2338], [6.6599, 58.2627], [6.6176, 58.2664], [6.4915, 58.2594], [6.3891, 58.268], [6.0547, 58.3751], [5.9766, 58.4323], [5.7068, 58.5236], [5.5859, 58.6204], [5.5173, 58.7265], [5.5225, 58.8227], [5.5556, 58.9752], [5.6122, 59.0129], [5.8543, 58.9595], [6.099, 58.8703], [6.1373, 58.8747], [6.2142, 58.9447], [6.3633, 59.0009], [6.3211, 59.0165], [6.0994, 58.952], [6.017, 58.9877], [5.8892, 59.0605], [5.8892, 59.0979], [5.9487, 59.1354], [5.9686, 59.1861], [5.9373, 59.234], [5.9519, 59.2991], [6.0507, 59.3682], [6.1989, 59.4381], [6.3057, 59.5056], [6.4153, 59.5471], [6.4039, 59.561], [6.2785, 59.5345], [6.1586, 59.4896], [6.0174, 59.4145], [5.8452, 59.3535], [5.718, 59.3298], [5.6573, 59.3103], [5.5641, 59.2912], [5.4676, 59.2038], [5.3623, 59.1664], [5.1732, 59.1625], [5.1316, 59.2265], [5.1851, 59.4537], [5.2422, 59.5643], [5.3049, 59.6426], [5.4035, 59.6558], [5.4725, 59.7131], [5.5297, 59.7131], [5.5795, 59.6866], [5.7722, 59.6609], [5.8673, 59.734], [5.991, 59.7447], [6.2166, 59.8184], [6.2119, 59.8318], [6.0593, 59.8156], [5.9667, 59.8132], [5.834, 59.7947], [5.7635, 59.8079], [5.7305, 59.8631], [5.7836, 59.9128], [5.94, 60.0], [5.6849, 60.0], [5.557, 59.9078], [5.4945, 59.8256], [5.3534, 59.7601], [5.2639, 59.7098], [5.2345, 59.6918], [5.186, 59.6423], [5.1458, 59.6388], [5.1107, 59.6678], [5.1049, 59.7317], [5.1192, 59.8337], [5.1871, 59.9071], [5.2195, 59.9788], [5.2052, 60.0], [17.0, 60.0], [17.0, 39.0], [17.0, 39.0], [17.0, 43.3148], [16.9031, 43.3924], [16.6003, 43.4641], [16.3939, 43.5434], [16.2689, 43.5312], [16.1311, 43.5063], [16.046, 43.5055], [15.9855, 43.5198], [15.9426, 43.5689], [15.9491, 43.607], [15.9415, 43.6566], [15.8206, 43.7359], [15.6557, 43.8113], [15.4994, 43.9088], [15.1858, 44.1721], [15.1229, 44.2568], [15.1847, 44.2729], [15.2313, 44.2714], [15.2843, 44.2888], [15.3697, 44.2893], [15.471, 44.272], [15.3813, 44.3283], [15.2698, 44.3835], [14.9813, 44.6029], [14.8952, 44.7066], [14.8853, 44.8183], [14.9065, 44.9714], [14.8546, 45.081], [14.632, 45.2229], [14.5505, 45.2977], [14.3861, 45.3421], [14.3127, 45.3378], [14.2686, 45.2825], [14.2363, 45.1597], [14.0906, 44.9976], [14.042, 44.9272], [13.9658, 44.8356], [13.8998, 44.8293], [13.8607, 44.8374], [13.7425, 44.9915], [13.6293, 45.1082], [13.6135, 45.1634], [13.6033, 45.2314], [13.5172, 45.4818], [13.5779, 45.5169], [13.6373, 45.5359], [13.7198, 45.5876], [13.7833, 45.6272], [13.6283, 45.7709], [13.5582, 45.7707], [13.4651, 45.71], [13.2063, 45.7714], [13.1567, 45.7466], [13.1201, 45.6979], [13.0303, 45.6375], [12.903, 45.6108], [12.7612, 45.5443], [12.6117, 45.4972], [12.4976, 45.4617], [12.4321, 45.4679], [12.5361, 45.5449], [12.4918, 45.5463], [12.3538, 45.492], [12.2743, 45.446], [12.2488, 45.3688], [12.2257, 45.2415], [12.2863, 45.2077], [12.3925, 45.0398], [12.5234, 44.968], [12.4979, 44.8994], [12.4636, 44.8452], [12.3845, 44.7983], [12.319, 44.8331], [12.2789, 44.8322], [12.2483, 44.7225], [12.305, 44.4294], [12.3963, 44.2239], [12.4868, 44.1342], [12.6911, 43.9947], [12.907, 43.9212], [13.2953, 43.6861], [13.5082, 43.6117], [13.5642, 43.5713], [13.6933, 43.3899], [13.8047, 43.1804], [13.9249, 42.8516], [14.0104, 42.6896], [14.1827, 42.5064], [14.5407, 42.2443], [14.8661, 42.0525], [15.1687, 41.934], [15.405, 41.9132], [15.9641, 41.9395], [16.0615, 41.9281], [16.1646, 41.8962], [16.1892, 41.814], [16.1513, 41.7585], [16.0337, 41.7008], [15.9138, 41.6208], [15.9005, 41.5121], [16.0126, 41.4354], [16.5519, 41.232], [17.0, 41.094], [17.0, 40.4967], [16.9282, 40.4581], [16.807, 40.3265], [16.6696, 40.1372], [16.53, 39.8597], [16.5219, 39.7476], [16.5978, 39.6389], [16.8243, 39.5783], [16.9992, 39.4816], [17.0, 39.4809], [17.0, 39.0], [16.137, 39.0], [16.1074, 39.0238], [16.0715, 39.1395], [16.0236, 39.3536], [15.8544, 39.6265], [15.7637, 39.8701], [15.6928, 39.9902], [15.5852, 40.0528], [15.3909, 40.0521], [15.2945, 40.07], [14.9509, 40.239], [14.927, 40.2647], [14.9291, 40.3096], [14.9861, 40.3775], [14.9477, 40.4693], [14.9069, 40.5561], [14.8396, 40.63], [14.7657, 40.6684], [14.6112, 40.6448], [14.5569, 40.6264], [14.4594, 40.6327], [14.3827, 40.5999], [14.3399, 40.5988], [14.4605, 40.7287], [14.4281, 40.7593], [14.3089, 40.8126], [14.1472, 40.8207], [14.1023, 40.8271], [14.0759, 40.7939], [14.0443, 40.8123], [14.0477, 40.8703], [13.8598, 41.13], [13.7334, 41.2356], [13.6697, 41.2545], [13.5548, 41.2322], [13.3619, 41.2785], [13.2469, 41.2889], [13.1834, 41.2777], [13.0887, 41.2438], [13.041, 41.2662], [13.0242, 41.3009], [12.8492, 41.4087], [12.6309, 41.4697], [12.2057, 41.8126], [12.0753, 41.9409], [11.807, 42.082], [11.6373, 42.2875], [11.4984, 42.3629], [11.2963, 42.4233], [11.2497, 42.4157], [11.1889, 42.3931], [11.1412, 42.3899], [11.1032, 42.4166], [11.1418, 42.4441], [11.1848, 42.4566], [11.1678, 42.5352], [10.9378, 42.7387], [10.8031, 42.8043], [10.7651, 42.8447], [10.7371, 42.9], [10.7084, 42.9363], [10.6446, 42.9572], [10.5902, 42.9536], [10.5148, 42.9675], [10.5173, 43.0651], [10.5323, 43.1401], [10.5208, 43.2038], [10.4476, 43.3712], [10.3205, 43.5131], [10.2458, 43.8521], [10.1881, 43.9475], [10.0477, 44.02], [9.7309, 44.1012], [9.2894, 44.3192], [9.196, 44.323], [8.9304, 44.4078], [8.7658, 44.4223], [8.552, 44.3461], [8.2924, 44.1365], [8.0816, 43.9189], [8.005, 43.8768], [7.7333, 43.8026], [7.4932, 43.7671], [7.2615, 43.6961], [7.1814, 43.6591], [6.8647, 43.4383], [6.7166, 43.3736], [6.6874, 43.3346], [6.6572, 43.2617], [6.5702, 43.1991], [6.494, 43.1693], [6.3054, 43.1387], [6.1159, 43.0724], [6.0306, 43.101], [5.8095, 43.0979], [5.6716, 43.1778], [5.4065, 43.2285], [5.3202, 43.3449], [5.1995, 43.3525], [5.1204, 43.349], [5.0731, 43.3666], [5.0608, 43.4063], [5.0598, 43.4445], [4.976, 43.427], [4.9119, 43.427], [4.8737, 43.4116], [4.8436, 43.3939], [4.8079, 43.4052], [4.7872, 43.4014], [4.7891, 43.3789], [4.7121, 43.3733], [4.6287, 43.3871], [4.4098, 43.4472], [4.3762, 43.4564], [4.2242, 43.4796], [4.1628, 43.5037], [4.1131, 43.563], [4.0751, 43.5818], [4.0526, 43.5931], [3.9108, 43.5631], [3.8616, 43.5164], [3.7848, 43.4616], [3.2589, 43.1932], [3.1629, 43.0808], [3.0518, 42.9151], [3.0431, 42.8379], [3.0909, 42.5909], [3.1979, 42.4612], [3.2114, 42.4312], [3.2398, 42.3679], [3.2879, 42.3437], [3.3067, 42.289], [3.2187, 42.2604], [3.1664, 42.2565], [3.1504, 42.1625], [3.1752, 42.136], [3.2246, 42.1111], [3.2381, 42.0822], [3.248, 41.9442], [3.1469, 41.861], [3.0049, 41.7674], [2.3109, 41.4665], [2.1456, 41.3208], [2.0826, 41.2874], [1.5666, 41.1956], [1.2059, 41.0976], [1.0329, 41.0621], [0.8169, 40.8916], [0.7146, 40.8229], [0.7961, 40.8038], [0.8911, 40.7224], [0.8592, 40.6862], [0.7206, 40.6305], [0.6601, 40.6133], [0.6271, 40.6222], [0.5961, 40.6145], [0.3637, 40.319], [0.1584, 40.1066], [0.0431, 40.014], [-0.0751, 39.8759], [-0.327, 39.5199], [-0.329, 39.4171], [-0.2049, 39.0626], [-0.1571, 39.0], [-7.0, 39.0], [-7.0, 43.566], [-6.9007, 43.5856], [-6.6173, 43.5924], [-6.4757, 43.5789], [-6.2241, 43.6039], [-6.0801, 43.5949], [-5.8467, 43.6451], [-5.6658, 43.5825], [-5.3157, 43.5532], [-5.1053, 43.5019], [-4.523, 43.4157], [-4.3128, 43.4147], [-4.0153, 43.4631], [-3.8894, 43.4994], [-3.774, 43.4779], [-3.6046, 43.5195], [-3.5236, 43.511], [-3.4179, 43.4517], [-3.0456, 43.3716], [-2.9477, 43.4397], [-2.875, 43.4544], [-2.6071, 43.4127], [-2.3371, 43.328], [-2.1967, 43.3219], [-1.9913, 43.3451], [-1.8285, 43.4008], [-1.794, 43.4073], [-1.6314, 43.438], [-1.4849, 43.5638], [-1.346, 44.0202], [-1.2455, 44.5599], [-1.1708, 44.6618], [-1.077, 44.6898], [-1.1529, 44.764], [-1.2004, 44.7265], [-1.2203, 44.6866], [-1.2452, 44.6667], [-1.1891, 45.1615], [-1.1491, 45.3426], [-1.081, 45.5324], [-0.9417, 45.4571], [-0.8263, 45.3807], [-0.7667, 45.3144], [-0.6911, 45.0935], [-0.634, 45.0471], [-0.5485, 45.0006], [-0.5823, 45.0514], [-0.6411, 45.0902], [-0.7331, 45.3846], [-0.7908, 45.468], [-0.8807, 45.5382], [-1.17, 45.6859], [-1.196, 45.7145], [-1.21, 45.7709], [-1.1144, 45.7685], [-1.0317, 45.7411], [-1.0415, 45.7727], [-1.066, 45.8057], [-1.1044, 45.9253], [-1.1364, 46.2048], [-1.132, 46.2527], [-1.1463, 46.3114], [-1.2388, 46.3245], [-1.3128, 46.3269], [-1.3925, 46.3501], [-1.7865, 46.5148], [-1.9214, 46.6848], [-2.0594, 46.8103], [-2.0925, 46.865], [-2.0903, 46.9205], [-2.0189, 47.0376], [-2.0819, 47.1116], [-2.1436, 47.1263], [-2.1971, 47.1629], [-2.1486, 47.2239], [-2.1083, 47.2629], [-2.0276, 47.2736], [-1.9217, 47.2606], [-1.8213, 47.2253], [-1.7425, 47.216], [-1.9754, 47.3107], [-2.353, 47.2788], [-2.4344, 47.291], [-2.5031, 47.3121], [-2.53, 47.3816], [-2.4763, 47.4129], [-2.4277, 47.4709], [-2.4827, 47.5116], [-2.5541, 47.5271], [-2.6659, 47.5262], [-2.7703, 47.5139], [-2.7968, 47.5373], [-2.7331, 47.6018], [-2.7872, 47.6255], [-2.8594, 47.6145], [-2.9641, 47.6011], [-3.0642, 47.6213], [-3.1588, 47.6947], [-3.2216, 47.6941], [-3.2647, 47.6851], [-3.3286, 47.7133], [-3.3959, 47.7204], [-3.4439, 47.711], [-3.5078, 47.7531], [-3.9009, 47.8375], [-4.0707, 47.8479], [-4.2264, 47.8096], [-4.3121, 47.8229], [-4.3751, 47.8774], [-4.428, 47.9689], [-4.6788, 48.0395], [-4.6292, 48.0858], [-4.5124, 48.0967], [-4.3778, 48.1288], [-4.3294, 48.17], [-4.4346, 48.218], [-4.5122, 48.2297], [-4.5443, 48.247], [-4.5771, 48.29], [-4.5307, 48.3097], [-4.4979, 48.2993], [-4.4033, 48.2931], [-4.2414, 48.3037], [-4.3018, 48.3471], [-4.3644, 48.3567], [-4.3932, 48.3676], [-4.5248, 48.3723], [-4.5847, 48.3575], [-4.7194, 48.3631], [-4.7485, 48.41], [-4.7625, 48.4502], [-4.7208, 48.5399], [-4.5312, 48.62], [-4.0589, 48.7075], [-3.8557, 48.6947], [-3.7148, 48.7105], [-3.546, 48.7657], [-3.4715, 48.8129], [-3.2314, 48.8408], [-3.0032, 48.7907], [-2.7929, 48.6011], [-2.6923, 48.5368], [-2.4462, 48.6483], [-2.0794, 48.645], [-2.0037, 48.5821], [-1.9731, 48.6351], [-1.9057, 48.6971], [-1.852, 48.6688], [-1.8247, 48.6305], [-1.4376, 48.6414], [-1.3765, 48.6526], [-1.4805, 48.6976], [-1.5655, 48.8055], [-1.5831, 49.2024], [-1.6903, 49.3132], [-1.8134, 49.4901], [-1.8701, 49.5951], [-1.8754, 49.6314], [-1.8564, 49.6838], [-1.7051, 49.681], [-1.5882, 49.6677], [-1.3657, 49.7073], [-1.2586, 49.6802], [-1.2649, 49.5982], [-1.2323, 49.4949], [-1.195, 49.4448], [-1.1385, 49.3879], [-0.9591, 49.3932], [-0.7655, 49.3597], [-0.5209, 49.3545], [-0.1635, 49.2968], [-0.0112, 49.3302], [0.1361, 49.4015], [0.4169, 49.4484], [0.4393, 49.4732], [0.2776, 49.4633], [0.1294, 49.5084], [0.1094, 49.5575], [0.1266, 49.6016], [0.1867, 49.703], [0.6162, 49.8629], [0.9241, 49.9102], [1.2455, 49.9982], [1.4072, 50.0885], [1.5141, 50.2051], [1.5484, 50.2307], [1.5928, 50.2522], [1.5516, 50.2939], [1.5795, 50.7393], [1.6096, 50.8195], [1.6723, 50.885], [1.7677, 50.9357], [1.9125, 50.9906], [2.4457, 51.0665], [2.5249, 51.0971], [2.9602, 51.2654], [3.2252, 51.3516], [3.3501, 51.3777], [3.4258, 51.3935], [3.5895, 51.3994], [3.7165, 51.3691], [3.8834, 51.3545], [4.011, 51.3959], [4.1115, 51.3606], [4.2262, 51.3865], [4.1389, 51.4015], [4.0065, 51.4432], [3.8219, 51.4094], [3.6936, 51.4499], [3.5869, 51.4539], [3.5205, 51.4862], [3.4489, 51.5408], [3.4996, 51.5767], [3.5486, 51.5891], [3.7439, 51.596], [3.886, 51.5742], [4.1413, 51.4558], [4.2058, 51.4567], [4.2741, 51.4716], [4.2394, 51.5039], [4.1755, 51.5193], [4.0805, 51.5511], [4.0048, 51.5958], [4.1826, 51.6103], [4.158, 51.6334], [4.1346, 51.6729], [3.9469, 51.8105], [3.9789, 51.8478], [4.0261, 51.9277], [4.0849, 51.9941], [4.1317, 52.0119], [4.2088, 52.059], [4.3763, 52.1968], [4.4828, 52.3092], [4.5621, 52.4426], [4.6783, 52.8098], [4.7127, 52.8721], [4.7687, 52.9413], [4.8391, 52.9283], [4.888, 52.9083], [5.0612, 52.9606], [5.3584, 53.0965], [5.446, 53.2141], [5.532, 53.2687], [5.8735, 53.3752], [6.0622, 53.4071], [6.3532, 53.4153], [6.5636, 53.4343], [6.8162, 53.4412], [6.9124, 53.3754], [6.9682, 53.3273], [7.058, 53.3006], [7.1973, 53.2823], [7.1521, 53.327], [7.0533, 53.3758], [7.0743, 53.4776], [7.1071, 53.557], [7.2064, 53.6545], [7.2853, 53.6813], [7.6292, 53.6973], [8.0093, 53.6907], [8.1671, 53.5434], [8.1085, 53.4677], [8.2008, 53.4324], [8.2452, 53.4453], [8.279, 53.5112], [8.3016, 53.5841], [8.3339, 53.6062], [8.4514, 53.5517], [8.4927, 53.5144], [8.4952, 53.3942], [8.5385, 53.5569], [8.5062, 53.6708], [8.5284, 53.7811], [8.5756, 53.8385], [8.6189, 53.875], [8.8978, 53.8357], [9.2056, 53.856], [9.322, 53.8135], [9.5854, 53.6005], [9.6731, 53.5656], [9.784, 53.5546], [9.6312, 53.6002], [9.312, 53.8591], [9.2164, 53.8912], [9.0696, 53.9009], [8.9781, 53.9262], [8.9204, 53.9653], [8.9035, 54.0003], [8.9066, 54.2608], [8.8516, 54.2996], [8.7804, 54.313], [8.736, 54.2952], [8.6449, 54.295], [8.6258, 54.354], [8.648, 54.3977], [8.8312, 54.4275], [8.9519, 54.4676], [8.9572, 54.5383], [8.881, 54.5939], [8.7896, 54.6959], [8.6823, 54.7918], [8.6614, 54.9859], [8.6383, 55.0456], [8.5729, 55.1343], [8.6698, 55.1557], [8.6511, 55.3286], [8.6159, 55.4182], [8.3453, 55.5103], [8.1321, 55.5998], [8.1813, 55.9012], [8.2023, 55.9824], [8.1215, 56.1399], [8.1299, 56.3212], [8.164, 56.6069], [8.2317, 56.6181], [8.2814, 56.6167], [8.4731, 56.5654], [8.5529, 56.5603], [8.6076, 56.5145], [8.6717, 56.4957], [8.7181, 56.5443], [8.7361, 56.6274], [8.8881, 56.7351], [8.9945, 56.7748], [9.0671, 56.7938], [9.1403, 56.7504], [9.1964, 56.7017], [9.2097, 56.8084], [9.2549, 57.0117], [9.1104, 57.0437], [8.9928, 57.0161], [8.8761, 56.8873], [8.772, 56.7253], [8.6031, 56.7104], [8.4684, 56.6646], [8.3467, 56.7121], [8.2683, 56.754], [8.2663, 56.8153], [8.2841, 56.8523], [8.4271, 56.9844], [8.6186, 57.1113], [8.8115, 57.1101], [8.9522, 57.1506], [9.0363, 57.1554], [9.2988, 57.1465], [9.4336, 57.1743], [9.5543, 57.2325], [9.8151, 57.4784], [9.9623, 57.581], [10.2591, 57.617], [10.5333, 57.7354], [10.61, 57.7369], [10.481, 57.6487], [10.4603, 57.6146], [10.4446, 57.5622], [10.5371, 57.4485], [10.5176, 57.3793], [10.5241, 57.2432], [10.4369, 57.1723], [10.3385, 57.0213], [10.2961, 56.9991], [10.287, 56.8229], [10.2967, 56.7809], [10.2827, 56.6205], [10.3836, 56.5548], [10.4902, 56.5205], [10.8459, 56.5217], [10.8828, 56.4929], [10.9262, 56.4433], [10.8944, 56.359], [10.8564, 56.2955], [10.7534, 56.242], [10.6212, 56.2021], [10.539, 56.2003], [10.427, 56.2762], [10.3737, 56.2516], [10.3187, 56.2129], [10.2267, 56.0054], [10.183, 55.8652], [10.1594, 55.8538], [10.1073, 55.8745], [10.0174, 55.8761], [9.9037, 55.8428], [9.962, 55.8131], [10.0236, 55.7614], [9.999, 55.7355], [9.899, 55.7076], [9.8104, 55.651], [9.7732, 55.6082], [9.6614, 55.5575], [9.5911, 55.4932], [9.6256, 55.4136], [9.6402, 55.3437], [9.671, 55.2664], [9.6433, 55.2047], [9.5048, 55.1163], [9.4537, 55.0396], [9.5724, 55.0405], [9.6454, 55.0228], [9.6882, 55.0001], [9.7323, 54.968], [9.7053, 54.9283], [9.7459, 54.8072], [9.8923, 54.7806], [9.9538, 54.7383], [10.0222, 54.6739], [10.0288, 54.5813], [9.9413, 54.5146], [9.8687, 54.4725], [10.1435, 54.4884], [10.1708, 54.4502], [10.2124, 54.4089], [10.3604, 54.4383], [10.7315, 54.3163], [10.956, 54.3757], [11.0134, 54.3792], [11.0644, 54.2805], [11.0086, 54.1812], [10.8107, 54.0751], [10.8546, 54.0098], [10.9178, 53.9953], [11.1043, 54.0092], [11.3996, 53.9446], [11.4611, 53.9647], [11.7006, 54.1135], [11.7963, 54.1455], [12.1113, 54.1683], [12.1687, 54.2259], [12.2963, 54.2838], [12.3785, 54.347], [12.5754, 54.4674], [12.7791, 54.4457], [12.898, 54.4227], [13.0286, 54.411], [13.1475, 54.2827], [13.448, 54.1409], [13.7242, 54.1532], [13.8223, 54.019], [13.8655, 53.8534], [13.9504, 53.8014], [14.025, 53.7674], [14.25, 53.7319], [14.4876, 53.6719], [14.5835, 53.6394], [14.5716, 53.6759], [14.5521, 53.7073], [14.5649, 53.7535], [14.5584, 53.8232], [14.3509, 53.8587], [14.1722, 53.8744], [14.0483, 53.8631], [13.9258, 53.8791], [13.9021, 53.939], [13.9217, 53.9966], [13.8725, 54.0363], [13.8271, 54.0596], [13.8204, 54.0928], [13.8277, 54.1272], [14.0389, 54.0346], [14.2114, 53.9503], [14.2493, 53.9319], [14.3842, 53.9247], [14.7157, 54.0183], [15.2884, 54.1399], [15.9, 54.254], [16.0428, 54.2664], [16.1863, 54.2904], [16.2394, 54.3331], [16.2923, 54.3616], [16.3756, 54.4369], [16.5598, 54.5538], [16.8854, 54.5964], [17.0, 54.6486]]]}, "properties": {}}]}